<?xml version="1.0" encoding="utf-8"?>
<gpx xmlns="http://www.topografix.com/GPX/1/1" version="1.1" creator="https://mapy.com/">
	<trk>
		<name>den 1</name>
		<trkseg>
			<trkpt lat="46.746001" lon="12.425703">
				<ele>1080.000000</ele>
			</trkpt>
			<trkpt lat="46.746032" lon="12.425803">
				<ele>1080.000000</ele>
			</trkpt>
			<trkpt lat="46.746081" lon="12.425992">
				<ele>1080.000000</ele>
			</trkpt>
			<trkpt lat="46.746111" lon="12.426019">
				<ele>1080.000000</ele>
			</trkpt>
			<trkpt lat="46.746228" lon="12.425964">
				<ele>1080.000000</ele>
			</trkpt>
			<trkpt lat="46.746050" lon="12.425210">
				<ele>1080.000000</ele>
			</trkpt>
			<trkpt lat="46.745976" lon="12.424913">
				<ele>1080.000000</ele>
			</trkpt>
			<trkpt lat="46.745920" lon="12.424688">
				<ele>1080.000000</ele>
			</trkpt>
			<trkpt lat="46.745840" lon="12.424384">
				<ele>1080.000000</ele>
			</trkpt>
			<trkpt lat="46.745736" lon="12.423952">
				<ele>1080.000000</ele>
			</trkpt>
			<trkpt lat="46.745477" lon="12.423197">
				<ele>1080.000000</ele>
			</trkpt>
			<trkpt lat="46.745465" lon="12.423134">
				<ele>1080.000000</ele>
			</trkpt>
			<trkpt lat="46.745447" lon="12.423072">
				<ele>1080.000000</ele>
			</trkpt>
			<trkpt lat="46.745409" lon="12.422667">
				<ele>1080.000000</ele>
			</trkpt>
			<trkpt lat="46.745317" lon="12.421562">
				<ele>1080.000000</ele>
			</trkpt>
			<trkpt lat="46.745256" lon="12.420870">
				<ele>1081.000000</ele>
			</trkpt>
			<trkpt lat="46.745231" lon="12.420430">
				<ele>1081.000000</ele>
			</trkpt>
			<trkpt lat="46.745237" lon="12.420277">
				<ele>1081.000000</ele>
			</trkpt>
			<trkpt lat="46.745237" lon="12.420269">
				<ele>1081.000000</ele>
			</trkpt>
			<trkpt lat="46.745262" lon="12.420197">
				<ele>1081.000000</ele>
			</trkpt>
			<trkpt lat="46.745311" lon="12.420017">
				<ele>1081.000000</ele>
			</trkpt>
			<trkpt lat="46.745428" lon="12.419990">
				<ele>1081.000000</ele>
			</trkpt>
			<trkpt lat="46.745724" lon="12.419864">
				<ele>1081.000000</ele>
			</trkpt>
			<trkpt lat="46.745674" lon="12.419676">
				<ele>1082.000000</ele>
			</trkpt>
			<trkpt lat="46.745600" lon="12.418921">
				<ele>1082.000000</ele>
			</trkpt>
			<trkpt lat="46.745570" lon="12.418579">
				<ele>1082.000000</ele>
			</trkpt>
			<trkpt lat="46.745527" lon="12.418130">
				<ele>1082.000000</ele>
			</trkpt>
			<trkpt lat="46.745477" lon="12.417277">
				<ele>1082.000000</ele>
			</trkpt>
			<trkpt lat="46.745465" lon="12.416792">
				<ele>1083.000000</ele>
			</trkpt>
			<trkpt lat="46.745459" lon="12.416172">
				<ele>1083.000000</ele>
			</trkpt>
			<trkpt lat="46.745490" lon="12.415445">
				<ele>1083.000000</ele>
			</trkpt>
			<trkpt lat="46.745508" lon="12.414726">
				<ele>1083.000000</ele>
			</trkpt>
			<trkpt lat="46.745465" lon="12.414708">
				<ele>1084.000000</ele>
			</trkpt>
			<trkpt lat="46.745194" lon="12.414618">
				<ele>1085.000000</ele>
			</trkpt>
			<trkpt lat="46.745157" lon="12.414600">
				<ele>1085.000000</ele>
			</trkpt>
			<trkpt lat="46.745028" lon="12.414574">
				<ele>1086.000000</ele>
			</trkpt>
			<trkpt lat="46.744954" lon="12.414528">
				<ele>1087.000000</ele>
			</trkpt>
			<trkpt lat="46.744843" lon="12.414457">
				<ele>1087.000000</ele>
			</trkpt>
			<trkpt lat="46.744338" lon="12.414197">
				<ele>1091.000000</ele>
			</trkpt>
			<trkpt lat="46.743255" lon="12.413729">
				<ele>1109.000000</ele>
			</trkpt>
			<trkpt lat="46.743119" lon="12.413684">
				<ele>1111.000000</ele>
			</trkpt>
			<trkpt lat="46.743021" lon="12.413694">
				<ele>1112.000000</ele>
			</trkpt>
			<trkpt lat="46.742978" lon="12.413639">
				<ele>1114.000000</ele>
			</trkpt>
			<trkpt lat="46.742855" lon="12.413514">
				<ele>1116.000000</ele>
			</trkpt>
			<trkpt lat="46.742689" lon="12.413432">
				<ele>1120.000000</ele>
			</trkpt>
			<trkpt lat="46.742633" lon="12.413415">
				<ele>1121.000000</ele>
			</trkpt>
			<trkpt lat="46.742578" lon="12.413405">
				<ele>1122.000000</ele>
			</trkpt>
			<trkpt lat="46.742461" lon="12.413432">
				<ele>1124.000000</ele>
			</trkpt>
			<trkpt lat="46.742393" lon="12.413388">
				<ele>1125.000000</ele>
			</trkpt>
			<trkpt lat="46.742307" lon="12.413245">
				<ele>1127.000000</ele>
			</trkpt>
			<trkpt lat="46.742270" lon="12.413145">
				<ele>1128.000000</ele>
			</trkpt>
			<trkpt lat="46.742221" lon="12.413002">
				<ele>1130.000000</ele>
			</trkpt>
			<trkpt lat="46.742209" lon="12.412669">
				<ele>1137.000000</ele>
			</trkpt>
			<trkpt lat="46.742252" lon="12.412373">
				<ele>1142.000000</ele>
			</trkpt>
			<trkpt lat="46.742227" lon="12.412148">
				<ele>1145.000000</ele>
			</trkpt>
			<trkpt lat="46.742085" lon="12.411663">
				<ele>1153.000000</ele>
			</trkpt>
			<trkpt lat="46.742030" lon="12.411637">
				<ele>1154.000000</ele>
			</trkpt>
			<trkpt lat="46.741944" lon="12.411331">
				<ele>1159.000000</ele>
			</trkpt>
			<trkpt lat="46.741808" lon="12.410935">
				<ele>1166.000000</ele>
			</trkpt>
			<trkpt lat="46.741605" lon="12.410478">
				<ele>1174.000000</ele>
			</trkpt>
			<trkpt lat="46.741402" lon="12.410226">
				<ele>1180.000000</ele>
			</trkpt>
			<trkpt lat="46.741249" lon="12.410109">
				<ele>1183.000000</ele>
			</trkpt>
			<trkpt lat="46.741181" lon="12.410029">
				<ele>1185.000000</ele>
			</trkpt>
			<trkpt lat="46.741156" lon="12.409822">
				<ele>1187.000000</ele>
			</trkpt>
			<trkpt lat="46.740953" lon="12.409408">
				<ele>1194.000000</ele>
			</trkpt>
			<trkpt lat="46.740836" lon="12.409381">
				<ele>1196.000000</ele>
			</trkpt>
			<trkpt lat="46.740294" lon="12.409534">
				<ele>1207.000000</ele>
			</trkpt>
			<trkpt lat="46.740048" lon="12.409597">
				<ele>1213.000000</ele>
			</trkpt>
			<trkpt lat="46.739844" lon="12.409570">
				<ele>1218.000000</ele>
			</trkpt>
			<trkpt lat="46.739740" lon="12.409579">
				<ele>1221.000000</ele>
			</trkpt>
			<trkpt lat="46.739567" lon="12.409614">
				<ele>1224.000000</ele>
			</trkpt>
			<trkpt lat="46.739118" lon="12.409822">
				<ele>1237.000000</ele>
			</trkpt>
			<trkpt lat="46.739112" lon="12.409857">
				<ele>1238.000000</ele>
			</trkpt>
			<trkpt lat="46.739211" lon="12.409974">
				<ele>1242.000000</ele>
			</trkpt>
			<trkpt lat="46.739482" lon="12.410118">
				<ele>1250.000000</ele>
			</trkpt>
			<trkpt lat="46.739648" lon="12.410136">
				<ele>1254.000000</ele>
			</trkpt>
			<trkpt lat="46.739697" lon="12.410199">
				<ele>1256.000000</ele>
			</trkpt>
			<trkpt lat="46.739703" lon="12.410342">
				<ele>1259.000000</ele>
			</trkpt>
			<trkpt lat="46.739635" lon="12.410459">
				<ele>1262.000000</ele>
			</trkpt>
			<trkpt lat="46.739309" lon="12.410684">
				<ele>1272.000000</ele>
			</trkpt>
			<trkpt lat="46.739174" lon="12.410729">
				<ele>1276.000000</ele>
			</trkpt>
			<trkpt lat="46.739014" lon="12.410729">
				<ele>1282.000000</ele>
			</trkpt>
			<trkpt lat="46.738694" lon="12.410782">
				<ele>1291.000000</ele>
			</trkpt>
			<trkpt lat="46.738509" lon="12.410828">
				<ele>1296.000000</ele>
			</trkpt>
			<trkpt lat="46.738423" lon="12.410792">
				<ele>1298.000000</ele>
			</trkpt>
			<trkpt lat="46.738342" lon="12.410765">
				<ele>1300.000000</ele>
			</trkpt>
			<trkpt lat="46.738226" lon="12.410603">
				<ele>1305.000000</ele>
			</trkpt>
			<trkpt lat="46.738102" lon="12.410576">
				<ele>1309.000000</ele>
			</trkpt>
			<trkpt lat="46.737949" lon="12.410522">
				<ele>1315.000000</ele>
			</trkpt>
			<trkpt lat="46.737746" lon="12.410566">
				<ele>1321.000000</ele>
			</trkpt>
			<trkpt lat="46.737376" lon="12.410729">
				<ele>1328.000000</ele>
			</trkpt>
			<trkpt lat="46.737173" lon="12.410765">
				<ele>1334.000000</ele>
			</trkpt>
			<trkpt lat="46.736957" lon="12.410711">
				<ele>1341.000000</ele>
			</trkpt>
			<trkpt lat="46.736748" lon="12.410342">
				<ele>1352.000000</ele>
			</trkpt>
			<trkpt lat="46.736618" lon="12.410172">
				<ele>1356.000000</ele>
			</trkpt>
			<trkpt lat="46.736502" lon="12.410019">
				<ele>1360.000000</ele>
			</trkpt>
			<trkpt lat="46.736354" lon="12.409489">
				<ele>1366.000000</ele>
			</trkpt>
			<trkpt lat="46.736323" lon="12.408914">
				<ele>1373.000000</ele>
			</trkpt>
			<trkpt lat="46.736280" lon="12.408681">
				<ele>1375.000000</ele>
			</trkpt>
			<trkpt lat="46.736022" lon="12.408142">
				<ele>1384.000000</ele>
			</trkpt>
			<trkpt lat="46.735867" lon="12.407899">
				<ele>1390.000000</ele>
			</trkpt>
			<trkpt lat="46.735806" lon="12.407755">
				<ele>1395.000000</ele>
			</trkpt>
			<trkpt lat="46.735751" lon="12.407503">
				<ele>1402.000000</ele>
			</trkpt>
			<trkpt lat="46.735652" lon="12.407360">
				<ele>1407.000000</ele>
			</trkpt>
			<trkpt lat="46.735159" lon="12.406911">
				<ele>1429.000000</ele>
			</trkpt>
			<trkpt lat="46.735073" lon="12.406723">
				<ele>1434.000000</ele>
			</trkpt>
			<trkpt lat="46.734876" lon="12.406578">
				<ele>1441.000000</ele>
			</trkpt>
			<trkpt lat="46.734636" lon="12.406184">
				<ele>1451.000000</ele>
			</trkpt>
			<trkpt lat="46.734507" lon="12.405824">
				<ele>1457.000000</ele>
			</trkpt>
			<trkpt lat="46.734384" lon="12.405474">
				<ele>1462.000000</ele>
			</trkpt>
			<trkpt lat="46.734298" lon="12.405105">
				<ele>1468.000000</ele>
			</trkpt>
			<trkpt lat="46.734131" lon="12.404800">
				<ele>1476.000000</ele>
			</trkpt>
			<trkpt lat="46.733984" lon="12.404656">
				<ele>1481.000000</ele>
			</trkpt>
			<trkpt lat="46.733676" lon="12.404163">
				<ele>1492.000000</ele>
			</trkpt>
			<trkpt lat="46.733436" lon="12.403794">
				<ele>1499.000000</ele>
			</trkpt>
			<trkpt lat="46.733380" lon="12.403534">
				<ele>1503.000000</ele>
			</trkpt>
			<trkpt lat="46.733368" lon="12.403398">
				<ele>1505.000000</ele>
			</trkpt>
			<trkpt lat="46.733036" lon="12.401782">
				<ele>1523.000000</ele>
			</trkpt>
			<trkpt lat="46.733011" lon="12.401539">
				<ele>1527.000000</ele>
			</trkpt>
			<trkpt lat="46.732974" lon="12.401423">
				<ele>1528.000000</ele>
			</trkpt>
			<trkpt lat="46.732814" lon="12.401054">
				<ele>1537.000000</ele>
			</trkpt>
			<trkpt lat="46.732765" lon="12.401000">
				<ele>1539.000000</ele>
			</trkpt>
			<trkpt lat="46.732734" lon="12.400991">
				<ele>1540.000000</ele>
			</trkpt>
			<trkpt lat="46.732641" lon="12.400955">
				<ele>1543.000000</ele>
			</trkpt>
			<trkpt lat="46.732562" lon="12.400857">
				<ele>1547.000000</ele>
			</trkpt>
			<trkpt lat="46.732297" lon="12.400802">
				<ele>1555.000000</ele>
			</trkpt>
			<trkpt lat="46.731995" lon="12.400515">
				<ele>1566.000000</ele>
			</trkpt>
			<trkpt lat="46.731749" lon="12.400407">
				<ele>1573.000000</ele>
			</trkpt>
			<trkpt lat="46.731644" lon="12.400281">
				<ele>1576.000000</ele>
			</trkpt>
			<trkpt lat="46.731576" lon="12.400174">
				<ele>1579.000000</ele>
			</trkpt>
			<trkpt lat="46.731428" lon="12.400075">
				<ele>1583.000000</ele>
			</trkpt>
			<trkpt lat="46.731336" lon="12.400066">
				<ele>1586.000000</ele>
			</trkpt>
			<trkpt lat="46.731053" lon="12.400066">
				<ele>1596.000000</ele>
			</trkpt>
			<trkpt lat="46.730911" lon="12.400075">
				<ele>1601.000000</ele>
			</trkpt>
			<trkpt lat="46.730819" lon="12.400029">
				<ele>1604.000000</ele>
			</trkpt>
			<trkpt lat="46.730714" lon="12.399842">
				<ele>1608.000000</ele>
			</trkpt>
			<trkpt lat="46.730548" lon="12.399670">
				<ele>1612.000000</ele>
			</trkpt>
			<trkpt lat="46.730468" lon="12.399652">
				<ele>1614.000000</ele>
			</trkpt>
			<trkpt lat="46.730462" lon="12.399536">
				<ele>1615.000000</ele>
			</trkpt>
			<trkpt lat="46.730437" lon="12.399482">
				<ele>1616.000000</ele>
			</trkpt>
			<trkpt lat="46.730400" lon="12.399320">
				<ele>1618.000000</ele>
			</trkpt>
			<trkpt lat="46.730351" lon="12.399276">
				<ele>1619.000000</ele>
			</trkpt>
			<trkpt lat="46.730271" lon="12.399339">
				<ele>1621.000000</ele>
			</trkpt>
			<trkpt lat="46.730197" lon="12.399572">
				<ele>1624.000000</ele>
			</trkpt>
			<trkpt lat="46.730148" lon="12.399616">
				<ele>1625.000000</ele>
			</trkpt>
			<trkpt lat="46.730031" lon="12.399599">
				<ele>1627.000000</ele>
			</trkpt>
			<trkpt lat="46.729859" lon="12.399509">
				<ele>1631.000000</ele>
			</trkpt>
			<trkpt lat="46.729704" lon="12.399490">
				<ele>1635.000000</ele>
			</trkpt>
			<trkpt lat="46.729476" lon="12.399347">
				<ele>1641.000000</ele>
			</trkpt>
			<trkpt lat="46.729249" lon="12.399194">
				<ele>1647.000000</ele>
			</trkpt>
			<trkpt lat="46.729101" lon="12.399087">
				<ele>1651.000000</ele>
			</trkpt>
			<trkpt lat="46.728750" lon="12.399014">
				<ele>1660.000000</ele>
			</trkpt>
			<trkpt lat="46.728571" lon="12.398997">
				<ele>1662.000000</ele>
			</trkpt>
			<trkpt lat="46.728424" lon="12.398970">
				<ele>1664.000000</ele>
			</trkpt>
			<trkpt lat="46.728288" lon="12.398889">
				<ele>1667.000000</ele>
			</trkpt>
			<trkpt lat="46.728122" lon="12.398826">
				<ele>1669.000000</ele>
			</trkpt>
			<trkpt lat="46.727931" lon="12.398647">
				<ele>1672.000000</ele>
			</trkpt>
			<trkpt lat="46.727660" lon="12.398511">
				<ele>1677.000000</ele>
			</trkpt>
			<trkpt lat="46.727463" lon="12.398242">
				<ele>1682.000000</ele>
			</trkpt>
			<trkpt lat="46.727389" lon="12.398090">
				<ele>1685.000000</ele>
			</trkpt>
			<trkpt lat="46.727309" lon="12.397918">
				<ele>1689.000000</ele>
			</trkpt>
			<trkpt lat="46.726860" lon="12.397524">
				<ele>1698.000000</ele>
			</trkpt>
			<trkpt lat="46.726545" lon="12.397119">
				<ele>1706.000000</ele>
			</trkpt>
			<trkpt lat="46.726330" lon="12.396723">
				<ele>1713.000000</ele>
			</trkpt>
			<trkpt lat="46.726152" lon="12.396482">
				<ele>1719.000000</ele>
			</trkpt>
			<trkpt lat="46.726016" lon="12.396320">
				<ele>1722.000000</ele>
			</trkpt>
			<trkpt lat="46.725856" lon="12.396203">
				<ele>1726.000000</ele>
			</trkpt>
			<trkpt lat="46.725757" lon="12.396149">
				<ele>1728.000000</ele>
			</trkpt>
			<trkpt lat="46.725745" lon="12.396140">
				<ele>1728.000000</ele>
			</trkpt>
			<trkpt lat="46.725499" lon="12.396033">
				<ele>1733.000000</ele>
			</trkpt>
			<trkpt lat="46.725394" lon="12.396014">
				<ele>1735.000000</ele>
			</trkpt>
			<trkpt lat="46.725295" lon="12.396014">
				<ele>1737.000000</ele>
			</trkpt>
			<trkpt lat="46.725148" lon="12.395960">
				<ele>1739.000000</ele>
			</trkpt>
			<trkpt lat="46.725098" lon="12.395924">
				<ele>1740.000000</ele>
			</trkpt>
			<trkpt lat="46.724982" lon="12.395826">
				<ele>1744.000000</ele>
			</trkpt>
			<trkpt lat="46.724870" lon="12.395763">
				<ele>1747.000000</ele>
			</trkpt>
			<trkpt lat="46.724698" lon="12.395763">
				<ele>1751.000000</ele>
			</trkpt>
			<trkpt lat="46.724618" lon="12.395736">
				<ele>1753.000000</ele>
			</trkpt>
			<trkpt lat="46.724569" lon="12.395511">
				<ele>1758.000000</ele>
			</trkpt>
			<trkpt lat="46.724526" lon="12.395467">
				<ele>1759.000000</ele>
			</trkpt>
			<trkpt lat="46.724304" lon="12.395484">
				<ele>1764.000000</ele>
			</trkpt>
			<trkpt lat="46.724224" lon="12.395565">
				<ele>1767.000000</ele>
			</trkpt>
			<trkpt lat="46.724181" lon="12.395647">
				<ele>1769.000000</ele>
			</trkpt>
			<trkpt lat="46.724113" lon="12.395664">
				<ele>1770.000000</ele>
			</trkpt>
			<trkpt lat="46.723934" lon="12.395601">
				<ele>1777.000000</ele>
			</trkpt>
			<trkpt lat="46.723873" lon="12.395521">
				<ele>1779.000000</ele>
			</trkpt>
			<trkpt lat="46.723811" lon="12.395440">
				<ele>1782.000000</ele>
			</trkpt>
			<trkpt lat="46.723744" lon="12.395368">
				<ele>1784.000000</ele>
			</trkpt>
			<trkpt lat="46.723694" lon="12.395134">
				<ele>1789.000000</ele>
			</trkpt>
			<trkpt lat="46.723719" lon="12.394865">
				<ele>1794.000000</ele>
			</trkpt>
			<trkpt lat="46.723725" lon="12.394666">
				<ele>1797.000000</ele>
			</trkpt>
			<trkpt lat="46.723694" lon="12.394335">
				<ele>1806.000000</ele>
			</trkpt>
			<trkpt lat="46.723663" lon="12.394289">
				<ele>1808.000000</ele>
			</trkpt>
			<trkpt lat="46.723632" lon="12.394280">
				<ele>1809.000000</ele>
			</trkpt>
			<trkpt lat="46.723590" lon="12.394236">
				<ele>1811.000000</ele>
			</trkpt>
			<trkpt lat="46.723559" lon="12.394425">
				<ele>1814.000000</ele>
			</trkpt>
			<trkpt lat="46.723504" lon="12.394039">
				<ele>1821.000000</ele>
			</trkpt>
			<trkpt lat="46.723467" lon="12.394236">
				<ele>1825.000000</ele>
			</trkpt>
			<trkpt lat="46.723374" lon="12.394010">
				<ele>1829.000000</ele>
			</trkpt>
			<trkpt lat="46.723276" lon="12.393957">
				<ele>1832.000000</ele>
			</trkpt>
			<trkpt lat="46.723195" lon="12.394245">
				<ele>1838.000000</ele>
			</trkpt>
			<trkpt lat="46.723103" lon="12.394236">
				<ele>1840.000000</ele>
			</trkpt>
			<trkpt lat="46.723048" lon="12.394020">
				<ele>1847.000000</ele>
			</trkpt>
			<trkpt lat="46.722949" lon="12.394029">
				<ele>1851.000000</ele>
			</trkpt>
			<trkpt lat="46.722869" lon="12.393867">
				<ele>1857.000000</ele>
			</trkpt>
			<trkpt lat="46.722839" lon="12.393867">
				<ele>1858.000000</ele>
			</trkpt>
			<trkpt lat="46.722752" lon="12.393624">
				<ele>1867.000000</ele>
			</trkpt>
			<trkpt lat="46.722568" lon="12.393490">
				<ele>1876.000000</ele>
			</trkpt>
			<trkpt lat="46.722297" lon="12.393463">
				<ele>1886.000000</ele>
			</trkpt>
			<trkpt lat="46.722038" lon="12.393463">
				<ele>1894.000000</ele>
			</trkpt>
			<trkpt lat="46.721896" lon="12.393473">
				<ele>1900.000000</ele>
			</trkpt>
			<trkpt lat="46.721724" lon="12.393616">
				<ele>1905.000000</ele>
			</trkpt>
			<trkpt lat="46.721601" lon="12.393607">
				<ele>1908.000000</ele>
			</trkpt>
			<trkpt lat="46.721551" lon="12.393534">
				<ele>1910.000000</ele>
			</trkpt>
			<trkpt lat="46.721397" lon="12.393544">
				<ele>1914.000000</ele>
			</trkpt>
			<trkpt lat="46.721311" lon="12.393473">
				<ele>1917.000000</ele>
			</trkpt>
			<trkpt lat="46.721286" lon="12.393418">
				<ele>1918.000000</ele>
			</trkpt>
			<trkpt lat="46.721231" lon="12.393400">
				<ele>1919.000000</ele>
			</trkpt>
			<trkpt lat="46.721151" lon="12.393454">
				<ele>1922.000000</ele>
			</trkpt>
			<trkpt lat="46.721114" lon="12.393652">
				<ele>1925.000000</ele>
			</trkpt>
			<trkpt lat="46.721114" lon="12.393976">
				<ele>1932.000000</ele>
			</trkpt>
			<trkpt lat="46.721108" lon="12.394002">
				<ele>1933.000000</ele>
			</trkpt>
			<trkpt lat="46.721096" lon="12.394029">
				<ele>1935.000000</ele>
			</trkpt>
			<trkpt lat="46.721059" lon="12.394226">
				<ele>1941.000000</ele>
			</trkpt>
			<trkpt lat="46.720935" lon="12.394200">
				<ele>1947.000000</ele>
			</trkpt>
			<trkpt lat="46.720929" lon="12.394343">
				<ele>1951.000000</ele>
			</trkpt>
			<trkpt lat="46.720868" lon="12.394362">
				<ele>1953.000000</ele>
			</trkpt>
			<trkpt lat="46.720917" lon="12.394433">
				<ele>1956.000000</ele>
			</trkpt>
			<trkpt lat="46.720899" lon="12.394487">
				<ele>1958.000000</ele>
			</trkpt>
			<trkpt lat="46.720781" lon="12.394532">
				<ele>1962.000000</ele>
			</trkpt>
			<trkpt lat="46.720744" lon="12.394639">
				<ele>1966.000000</ele>
			</trkpt>
			<trkpt lat="46.720665" lon="12.394765">
				<ele>1971.000000</ele>
			</trkpt>
			<trkpt lat="46.720634" lon="12.394991">
				<ele>1976.000000</ele>
			</trkpt>
			<trkpt lat="46.720554" lon="12.394882">
				<ele>1980.000000</ele>
			</trkpt>
			<trkpt lat="46.720492" lon="12.394928">
				<ele>1983.000000</ele>
			</trkpt>
			<trkpt lat="46.720473" lon="12.395115">
				<ele>1988.000000</ele>
			</trkpt>
			<trkpt lat="46.720363" lon="12.395232">
				<ele>1994.000000</ele>
			</trkpt>
			<trkpt lat="46.720289" lon="12.395278">
				<ele>1997.000000</ele>
			</trkpt>
			<trkpt lat="46.720154" lon="12.395170">
				<ele>2005.000000</ele>
			</trkpt>
			<trkpt lat="46.720024" lon="12.395215">
				<ele>2011.000000</ele>
			</trkpt>
			<trkpt lat="46.719938" lon="12.395215">
				<ele>2016.000000</ele>
			</trkpt>
			<trkpt lat="46.719907" lon="12.395134">
				<ele>2019.000000</ele>
			</trkpt>
			<trkpt lat="46.719839" lon="12.395071">
				<ele>2023.000000</ele>
			</trkpt>
			<trkpt lat="46.719710" lon="12.395044">
				<ele>2029.000000</ele>
			</trkpt>
			<trkpt lat="46.719661" lon="12.394981">
				<ele>2031.000000</ele>
			</trkpt>
			<trkpt lat="46.719618" lon="12.395008">
				<ele>2031.000000</ele>
			</trkpt>
			<trkpt lat="46.719667" lon="12.395098">
				<ele>2033.000000</ele>
			</trkpt>
			<trkpt lat="46.719655" lon="12.395142">
				<ele>2033.000000</ele>
			</trkpt>
			<trkpt lat="46.719568" lon="12.395098">
				<ele>2035.000000</ele>
			</trkpt>
			<trkpt lat="46.719476" lon="12.394936">
				<ele>2038.000000</ele>
			</trkpt>
			<trkpt lat="46.719408" lon="12.394936">
				<ele>2039.000000</ele>
			</trkpt>
			<trkpt lat="46.719384" lon="12.394945">
				<ele>2039.000000</ele>
			</trkpt>
			<trkpt lat="46.719254" lon="12.394802">
				<ele>2042.000000</ele>
			</trkpt>
			<trkpt lat="46.719174" lon="12.394819">
				<ele>2043.000000</ele>
			</trkpt>
			<trkpt lat="46.719045" lon="12.394748">
				<ele>2046.000000</ele>
			</trkpt>
			<trkpt lat="46.718965" lon="12.394756">
				<ele>2047.000000</ele>
			</trkpt>
			<trkpt lat="46.718928" lon="12.394865">
				<ele>2049.000000</ele>
			</trkpt>
			<trkpt lat="46.718934" lon="12.394901">
				<ele>2049.000000</ele>
			</trkpt>
			<trkpt lat="46.718965" lon="12.394918">
				<ele>2050.000000</ele>
			</trkpt>
			<trkpt lat="46.718792" lon="12.395421">
				<ele>2056.000000</ele>
			</trkpt>
			<trkpt lat="46.718589" lon="12.395664">
				<ele>2062.000000</ele>
			</trkpt>
			<trkpt lat="46.718589" lon="12.395700">
				<ele>2063.000000</ele>
			</trkpt>
			<trkpt lat="46.718540" lon="12.395790">
				<ele>2065.000000</ele>
			</trkpt>
			<trkpt lat="46.718509" lon="12.395924">
				<ele>2069.000000</ele>
			</trkpt>
			<trkpt lat="46.718460" lon="12.396023">
				<ele>2071.000000</ele>
			</trkpt>
			<trkpt lat="46.718423" lon="12.396023">
				<ele>2072.000000</ele>
			</trkpt>
			<trkpt lat="46.718398" lon="12.395970">
				<ele>2073.000000</ele>
			</trkpt>
			<trkpt lat="46.718294" lon="12.395978">
				<ele>2076.000000</ele>
			</trkpt>
			<trkpt lat="46.718220" lon="12.396023">
				<ele>2078.000000</ele>
			</trkpt>
			<trkpt lat="46.718053" lon="12.396006">
				<ele>2082.000000</ele>
			</trkpt>
			<trkpt lat="46.718017" lon="12.396060">
				<ele>2083.000000</ele>
			</trkpt>
			<trkpt lat="46.717986" lon="12.396060">
				<ele>2084.000000</ele>
			</trkpt>
			<trkpt lat="46.717911" lon="12.396113">
				<ele>2086.000000</ele>
			</trkpt>
			<trkpt lat="46.717874" lon="12.396320">
				<ele>2090.000000</ele>
			</trkpt>
			<trkpt lat="46.717752" lon="12.396436">
				<ele>2098.000000</ele>
			</trkpt>
			<trkpt lat="46.717671" lon="12.396463">
				<ele>2100.000000</ele>
			</trkpt>
			<trkpt lat="46.717610" lon="12.396410">
				<ele>2100.000000</ele>
			</trkpt>
			<trkpt lat="46.717406" lon="12.396526">
				<ele>2107.000000</ele>
			</trkpt>
			<trkpt lat="46.717216" lon="12.396652">
				<ele>2115.000000</ele>
			</trkpt>
			<trkpt lat="46.717129" lon="12.396626">
				<ele>2119.000000</ele>
			</trkpt>
			<trkpt lat="46.717087" lon="12.396742">
				<ele>2122.000000</ele>
			</trkpt>
			<trkpt lat="46.717012" lon="12.396706">
				<ele>2124.000000</ele>
			</trkpt>
			<trkpt lat="46.716944" lon="12.396679">
				<ele>2126.000000</ele>
			</trkpt>
			<trkpt lat="46.716895" lon="12.396571">
				<ele>2128.000000</ele>
			</trkpt>
			<trkpt lat="46.716717" lon="12.396652">
				<ele>2136.000000</ele>
			</trkpt>
			<trkpt lat="46.716594" lon="12.396670">
				<ele>2145.000000</ele>
			</trkpt>
			<trkpt lat="46.716501" lon="12.396616">
				<ele>2150.000000</ele>
			</trkpt>
			<trkpt lat="46.716452" lon="12.396796">
				<ele>2150.000000</ele>
			</trkpt>
			<trkpt lat="46.716366" lon="12.396813">
				<ele>2152.000000</ele>
			</trkpt>
			<trkpt lat="46.716329" lon="12.396895">
				<ele>2155.000000</ele>
			</trkpt>
			<trkpt lat="46.716292" lon="12.396939">
				<ele>2157.000000</ele>
			</trkpt>
			<trkpt lat="46.716255" lon="12.397065">
				<ele>2161.000000</ele>
			</trkpt>
			<trkpt lat="46.716205" lon="12.397146">
				<ele>2165.000000</ele>
			</trkpt>
			<trkpt lat="46.716083" lon="12.396993">
				<ele>2172.000000</ele>
			</trkpt>
			<trkpt lat="46.716070" lon="12.397048">
				<ele>2173.000000</ele>
			</trkpt>
			<trkpt lat="46.716027" lon="12.396993">
				<ele>2176.000000</ele>
			</trkpt>
			<trkpt lat="46.716002" lon="12.397075">
				<ele>2178.000000</ele>
			</trkpt>
			<trkpt lat="46.715959" lon="12.397039">
				<ele>2181.000000</ele>
			</trkpt>
			<trkpt lat="46.715947" lon="12.397083">
				<ele>2182.000000</ele>
			</trkpt>
			<trkpt lat="46.715904" lon="12.397056">
				<ele>2184.000000</ele>
			</trkpt>
			<trkpt lat="46.715855" lon="12.397155">
				<ele>2188.000000</ele>
			</trkpt>
			<trkpt lat="46.715774" lon="12.397002">
				<ele>2194.000000</ele>
			</trkpt>
			<trkpt lat="46.715700" lon="12.397165">
				<ele>2199.000000</ele>
			</trkpt>
			<trkpt lat="46.715608" lon="12.397029">
				<ele>2204.000000</ele>
			</trkpt>
			<trkpt lat="46.715522" lon="12.397137">
				<ele>2208.000000</ele>
			</trkpt>
			<trkpt lat="46.715454" lon="12.397075">
				<ele>2211.000000</ele>
			</trkpt>
			<trkpt lat="46.715319" lon="12.397110">
				<ele>2216.000000</ele>
			</trkpt>
			<trkpt lat="46.715269" lon="12.397173">
				<ele>2218.000000</ele>
			</trkpt>
			<trkpt lat="46.715066" lon="12.397128">
				<ele>2224.000000</ele>
			</trkpt>
			<trkpt lat="46.714919" lon="12.397039">
				<ele>2230.000000</ele>
			</trkpt>
			<trkpt lat="46.714838" lon="12.397255">
				<ele>2235.000000</ele>
			</trkpt>
			<trkpt lat="46.714709" lon="12.397452">
				<ele>2241.000000</ele>
			</trkpt>
			<trkpt lat="46.714598" lon="12.397236">
				<ele>2247.000000</ele>
			</trkpt>
			<trkpt lat="46.714506" lon="12.397092">
				<ele>2251.000000</ele>
			</trkpt>
			<trkpt lat="46.714161" lon="12.396796">
				<ele>2258.000000</ele>
			</trkpt>
			<trkpt lat="46.714099" lon="12.396679">
				<ele>2261.000000</ele>
			</trkpt>
			<trkpt lat="46.714031" lon="12.396517">
				<ele>2264.000000</ele>
			</trkpt>
			<trkpt lat="46.714044" lon="12.396446">
				<ele>2265.000000</ele>
			</trkpt>
			<trkpt lat="46.713995" lon="12.396284">
				<ele>2267.000000</ele>
			</trkpt>
			<trkpt lat="46.713914" lon="12.396221">
				<ele>2270.000000</ele>
			</trkpt>
			<trkpt lat="46.713853" lon="12.396247">
				<ele>2271.000000</ele>
			</trkpt>
			<trkpt lat="46.713594" lon="12.396392">
				<ele>2276.000000</ele>
			</trkpt>
			<trkpt lat="46.713354" lon="12.396643">
				<ele>2281.000000</ele>
			</trkpt>
			<trkpt lat="46.713101" lon="12.396886">
				<ele>2285.000000</ele>
			</trkpt>
			<trkpt lat="46.712787" lon="12.397065">
				<ele>2289.000000</ele>
			</trkpt>
			<trkpt lat="46.712633" lon="12.397218">
				<ele>2291.000000</ele>
			</trkpt>
			<trkpt lat="46.712498" lon="12.397226">
				<ele>2294.000000</ele>
			</trkpt>
			<trkpt lat="46.712307" lon="12.397371">
				<ele>2298.000000</ele>
			</trkpt>
			<trkpt lat="46.712295" lon="12.397344">
				<ele>2299.000000</ele>
			</trkpt>
			<trkpt lat="46.712183" lon="12.397092">
				<ele>2303.000000</ele>
			</trkpt>
			<trkpt lat="46.712067" lon="12.396993">
				<ele>2306.000000</ele>
			</trkpt>
			<trkpt lat="46.711999" lon="12.396958">
				<ele>2307.000000</ele>
			</trkpt>
			<trkpt lat="46.711980" lon="12.396913">
				<ele>2308.000000</ele>
			</trkpt>
			<trkpt lat="46.711968" lon="12.396787">
				<ele>2310.000000</ele>
			</trkpt>
			<trkpt lat="46.711943" lon="12.396733">
				<ele>2311.000000</ele>
			</trkpt>
			<trkpt lat="46.711888" lon="12.396706">
				<ele>2312.000000</ele>
			</trkpt>
			<trkpt lat="46.711777" lon="12.396742">
				<ele>2314.000000</ele>
			</trkpt>
			<trkpt lat="46.711697" lon="12.396715">
				<ele>2316.000000</ele>
			</trkpt>
			<trkpt lat="46.711574" lon="12.396778">
				<ele>2319.000000</ele>
			</trkpt>
			<trkpt lat="46.711457" lon="12.396913">
				<ele>2321.000000</ele>
			</trkpt>
			<trkpt lat="46.711365" lon="12.397039">
				<ele>2323.000000</ele>
			</trkpt>
			<trkpt lat="46.711315" lon="12.397065">
				<ele>2324.000000</ele>
			</trkpt>
			<trkpt lat="46.711290" lon="12.397155">
				<ele>2326.000000</ele>
			</trkpt>
			<trkpt lat="46.711192" lon="12.397289">
				<ele>2329.000000</ele>
			</trkpt>
			<trkpt lat="46.711149" lon="12.397469">
				<ele>2332.000000</ele>
			</trkpt>
			<trkpt lat="46.711100" lon="12.397658">
				<ele>2336.000000</ele>
			</trkpt>
			<trkpt lat="46.711081" lon="12.397784">
				<ele>2338.000000</ele>
			</trkpt>
			<trkpt lat="46.711056" lon="12.397918">
				<ele>2341.000000</ele>
			</trkpt>
			<trkpt lat="46.711056" lon="12.398035">
				<ele>2344.000000</ele>
			</trkpt>
			<trkpt lat="46.711032" lon="12.398314">
				<ele>2350.000000</ele>
			</trkpt>
			<trkpt lat="46.711050" lon="12.398394">
				<ele>2352.000000</ele>
			</trkpt>
			<trkpt lat="46.710872" lon="12.398242">
				<ele>2358.000000</ele>
			</trkpt>
			<trkpt lat="46.710681" lon="12.397972">
				<ele>2366.000000</ele>
			</trkpt>
			<trkpt lat="46.710625" lon="12.397614">
				<ele>2375.000000</ele>
			</trkpt>
			<trkpt lat="46.710551" lon="12.397641">
				<ele>2378.000000</ele>
			</trkpt>
			<trkpt lat="46.710520" lon="12.397586">
				<ele>2380.000000</ele>
			</trkpt>
			<trkpt lat="46.710490" lon="12.397631">
				<ele>2373.000000</ele>
			</trkpt>
			<trkpt lat="46.710453" lon="12.397685">
				<ele>2376.000000</ele>
			</trkpt>
			<trkpt lat="46.710447" lon="12.397731">
				<ele>2378.000000</ele>
			</trkpt>
			<trkpt lat="46.710416" lon="12.397892">
				<ele>2380.000000</ele>
			</trkpt>
			<trkpt lat="46.710385" lon="12.398171">
				<ele>2382.000000</ele>
			</trkpt>
			<trkpt lat="46.710360" lon="12.398188">
				<ele>2383.000000</ele>
			</trkpt>
			<trkpt lat="46.710329" lon="12.398224">
				<ele>2383.000000</ele>
			</trkpt>
			<trkpt lat="46.710299" lon="12.398260">
				<ele>2384.000000</ele>
			</trkpt>
			<trkpt lat="46.710268" lon="12.398278">
				<ele>2384.000000</ele>
			</trkpt>
			<trkpt lat="46.710237" lon="12.398323">
				<ele>2384.000000</ele>
			</trkpt>
			<trkpt lat="46.710219" lon="12.398350">
				<ele>2385.000000</ele>
			</trkpt>
			<trkpt lat="46.710194" lon="12.398394">
				<ele>2385.000000</ele>
			</trkpt>
			<trkpt lat="46.710176" lon="12.398413">
				<ele>2386.000000</ele>
			</trkpt>
			<trkpt lat="46.710163" lon="12.398431">
				<ele>2386.000000</ele>
			</trkpt>
			<trkpt lat="46.710126" lon="12.398494">
				<ele>2386.000000</ele>
			</trkpt>
			<trkpt lat="46.710101" lon="12.398538">
				<ele>2387.000000</ele>
			</trkpt>
			<trkpt lat="46.710058" lon="12.398610">
				<ele>2388.000000</ele>
			</trkpt>
			<trkpt lat="46.709997" lon="12.398700">
				<ele>2389.000000</ele>
			</trkpt>
			<trkpt lat="46.709954" lon="12.398763">
				<ele>2389.000000</ele>
			</trkpt>
			<trkpt lat="46.709917" lon="12.398817">
				<ele>2390.000000</ele>
			</trkpt>
			<trkpt lat="46.709874" lon="12.398844">
				<ele>2391.000000</ele>
			</trkpt>
			<trkpt lat="46.709830" lon="12.398897">
				<ele>2392.000000</ele>
			</trkpt>
			<trkpt lat="46.709788" lon="12.398943">
				<ele>2393.000000</ele>
			</trkpt>
			<trkpt lat="46.709720" lon="12.399014">
				<ele>2394.000000</ele>
			</trkpt>
			<trkpt lat="46.709670" lon="12.399096">
				<ele>2396.000000</ele>
			</trkpt>
			<trkpt lat="46.709615" lon="12.399150">
				<ele>2397.000000</ele>
			</trkpt>
			<trkpt lat="46.709566" lon="12.399194">
				<ele>2398.000000</ele>
			</trkpt>
			<trkpt lat="46.709529" lon="12.399266">
				<ele>2399.000000</ele>
			</trkpt>
			<trkpt lat="46.709455" lon="12.399347">
				<ele>2400.000000</ele>
			</trkpt>
			<trkpt lat="46.709362" lon="12.399473">
				<ele>2401.000000</ele>
			</trkpt>
			<trkpt lat="46.709307" lon="12.399599">
				<ele>2402.000000</ele>
			</trkpt>
			<trkpt lat="46.709239" lon="12.399689">
				<ele>2403.000000</ele>
			</trkpt>
			<trkpt lat="46.709178" lon="12.399752">
				<ele>2403.000000</ele>
			</trkpt>
			<trkpt lat="46.709092" lon="12.399805">
				<ele>2404.000000</ele>
			</trkpt>
			<trkpt lat="46.709012" lon="12.399876">
				<ele>2405.000000</ele>
			</trkpt>
			<trkpt lat="46.708937" lon="12.399985">
				<ele>2405.000000</ele>
			</trkpt>
			<trkpt lat="46.708815" lon="12.400102">
				<ele>2406.000000</ele>
			</trkpt>
			<trkpt lat="46.708771" lon="12.400201">
				<ele>2407.000000</ele>
			</trkpt>
			<trkpt lat="46.708716" lon="12.400371">
				<ele>2408.000000</ele>
			</trkpt>
			<trkpt lat="46.708642" lon="12.400461">
				<ele>2409.000000</ele>
			</trkpt>
			<trkpt lat="46.708581" lon="12.400551">
				<ele>2409.000000</ele>
			</trkpt>
			<trkpt lat="46.708525" lon="12.400650">
				<ele>2410.000000</ele>
			</trkpt>
			<trkpt lat="46.708475" lon="12.400775">
				<ele>2411.000000</ele>
			</trkpt>
			<trkpt lat="46.708426" lon="12.400910">
				<ele>2411.000000</ele>
			</trkpt>
			<trkpt lat="46.708346" lon="12.401054">
				<ele>2411.000000</ele>
			</trkpt>
			<trkpt lat="46.708291" lon="12.401108">
				<ele>2411.000000</ele>
			</trkpt>
			<trkpt lat="46.708192" lon="12.401224">
				<ele>2410.000000</ele>
			</trkpt>
			<trkpt lat="46.708137" lon="12.401251">
				<ele>2409.000000</ele>
			</trkpt>
			<trkpt lat="46.708088" lon="12.401323">
				<ele>2407.000000</ele>
			</trkpt>
			<trkpt lat="46.708038" lon="12.401423">
				<ele>2404.000000</ele>
			</trkpt>
			<trkpt lat="46.707860" lon="12.401566">
				<ele>2398.000000</ele>
			</trkpt>
			<trkpt lat="46.707798" lon="12.401539">
				<ele>2397.000000</ele>
			</trkpt>
			<trkpt lat="46.707712" lon="12.401566">
				<ele>2395.000000</ele>
			</trkpt>
			<trkpt lat="46.707453" lon="12.401683">
				<ele>2390.000000</ele>
			</trkpt>
			<trkpt lat="46.707379" lon="12.401692">
				<ele>2389.000000</ele>
			</trkpt>
			<trkpt lat="46.707324" lon="12.401700">
				<ele>2388.000000</ele>
			</trkpt>
			<trkpt lat="46.707225" lon="12.401826">
				<ele>2384.000000</ele>
			</trkpt>
			<trkpt lat="46.707176" lon="12.401926">
				<ele>2381.000000</ele>
			</trkpt>
			<trkpt lat="46.707170" lon="12.402015">
				<ele>2382.000000</ele>
			</trkpt>
			<trkpt lat="46.707157" lon="12.402096">
				<ele>2382.000000</ele>
			</trkpt>
			<trkpt lat="46.707108" lon="12.402230">
				<ele>2381.000000</ele>
			</trkpt>
			<trkpt lat="46.707040" lon="12.402375">
				<ele>2381.000000</ele>
			</trkpt>
			<trkpt lat="46.707015" lon="12.402518">
				<ele>2380.000000</ele>
			</trkpt>
			<trkpt lat="46.707022" lon="12.402761">
				<ele>2381.000000</ele>
			</trkpt>
			<trkpt lat="46.706985" lon="12.402949">
				<ele>2380.000000</ele>
			</trkpt>
			<trkpt lat="46.706930" lon="12.403039">
				<ele>2381.000000</ele>
			</trkpt>
			<trkpt lat="46.706868" lon="12.403291">
				<ele>2382.000000</ele>
			</trkpt>
			<trkpt lat="46.706812" lon="12.403417">
				<ele>2383.000000</ele>
			</trkpt>
			<trkpt lat="46.706733" lon="12.403471">
				<ele>2384.000000</ele>
			</trkpt>
			<trkpt lat="46.706683" lon="12.403623">
				<ele>2385.000000</ele>
			</trkpt>
			<trkpt lat="46.706652" lon="12.403686">
				<ele>2385.000000</ele>
			</trkpt>
			<trkpt lat="46.706621" lon="12.403776">
				<ele>2386.000000</ele>
			</trkpt>
			<trkpt lat="46.706480" lon="12.404054">
				<ele>2386.000000</ele>
			</trkpt>
			<trkpt lat="46.706511" lon="12.404018">
				<ele>2389.000000</ele>
			</trkpt>
			<trkpt lat="46.706400" lon="12.404252">
				<ele>2391.000000</ele>
			</trkpt>
			<trkpt lat="46.706400" lon="12.404324">
				<ele>2393.000000</ele>
			</trkpt>
			<trkpt lat="46.706406" lon="12.404396">
				<ele>2394.000000</ele>
			</trkpt>
			<trkpt lat="46.706424" lon="12.404494">
				<ele>2396.000000</ele>
			</trkpt>
			<trkpt lat="46.706418" lon="12.404700">
				<ele>2401.000000</ele>
			</trkpt>
			<trkpt lat="46.706406" lon="12.404790">
				<ele>2402.000000</ele>
			</trkpt>
			<trkpt lat="46.706418" lon="12.404853">
				<ele>2404.000000</ele>
			</trkpt>
			<trkpt lat="46.706474" lon="12.405088">
				<ele>2408.000000</ele>
			</trkpt>
			<trkpt lat="46.706461" lon="12.405159">
				<ele>2410.000000</ele>
			</trkpt>
			<trkpt lat="46.706455" lon="12.405222">
				<ele>2411.000000</ele>
			</trkpt>
			<trkpt lat="46.706437" lon="12.405339">
				<ele>2413.000000</ele>
			</trkpt>
			<trkpt lat="46.706437" lon="12.405438">
				<ele>2415.000000</ele>
			</trkpt>
			<trkpt lat="46.706412" lon="12.405474">
				<ele>2416.000000</ele>
			</trkpt>
			<trkpt lat="46.706375" lon="12.405455">
				<ele>2417.000000</ele>
			</trkpt>
			<trkpt lat="46.706313" lon="12.405392">
				<ele>2419.000000</ele>
			</trkpt>
			<trkpt lat="46.706246" lon="12.405348">
				<ele>2420.000000</ele>
			</trkpt>
			<trkpt lat="46.706209" lon="12.405329">
				<ele>2420.000000</ele>
			</trkpt>
			<trkpt lat="46.706203" lon="12.405329">
				<ele>2420.000000</ele>
			</trkpt>
			<trkpt lat="46.706178" lon="12.405339">
				<ele>2420.000000</ele>
			</trkpt>
			<trkpt lat="46.706159" lon="12.405375">
				<ele>2420.000000</ele>
			</trkpt>
			<trkpt lat="46.706153" lon="12.405411">
				<ele>2420.000000</ele>
			</trkpt>
			<trkpt lat="46.706172" lon="12.405465">
				<ele>2422.000000</ele>
			</trkpt>
			<trkpt lat="46.706178" lon="12.405474">
				<ele>2423.000000</ele>
			</trkpt>
			<trkpt lat="46.706196" lon="12.405528">
				<ele>2425.000000</ele>
			</trkpt>
			<trkpt lat="46.706271" lon="12.405824">
				<ele>2433.000000</ele>
			</trkpt>
			<trkpt lat="46.706295" lon="12.406075">
				<ele>2438.000000</ele>
			</trkpt>
			<trkpt lat="46.706271" lon="12.406121">
				<ele>2439.000000</ele>
			</trkpt>
			<trkpt lat="46.706240" lon="12.406130">
				<ele>2440.000000</ele>
			</trkpt>
			<trkpt lat="46.706147" lon="12.406031">
				<ele>2443.000000</ele>
			</trkpt>
			<trkpt lat="46.706091" lon="12.406004">
				<ele>2444.000000</ele>
			</trkpt>
			<trkpt lat="46.706030" lon="12.406048">
				<ele>2446.000000</ele>
			</trkpt>
			<trkpt lat="46.705962" lon="12.406228">
				<ele>2449.000000</ele>
			</trkpt>
			<trkpt lat="46.705999" lon="12.406264">
				<ele>2449.000000</ele>
			</trkpt>
			<trkpt lat="46.706049" lon="12.406273">
				<ele>2449.000000</ele>
			</trkpt>
		</trkseg>
	</trk>
</gpx>

