<?xml version="1.0" encoding="utf-8"?>
<gpx xmlns="http://www.topografix.com/GPX/1/1" version="1.1" creator="https://mapy.com/">
	<trk>
		<name>den 5</name>
		<trkseg>
			<trkpt lat="46.612290" lon="12.867172">
				<ele>1960.000000</ele>
			</trkpt>
			<trkpt lat="46.612370" lon="12.867297">
				<ele>1960.000000</ele>
			</trkpt>
			<trkpt lat="46.612383" lon="12.867324">
				<ele>1960.000000</ele>
			</trkpt>
			<trkpt lat="46.612401" lon="12.867387">
				<ele>1960.000000</ele>
			</trkpt>
			<trkpt lat="46.612463" lon="12.867666">
				<ele>1960.000000</ele>
			</trkpt>
			<trkpt lat="46.612654" lon="12.867945">
				<ele>1960.000000</ele>
			</trkpt>
			<trkpt lat="46.612784" lon="12.868142">
				<ele>1960.000000</ele>
			</trkpt>
			<trkpt lat="46.612840" lon="12.868375">
				<ele>1960.000000</ele>
			</trkpt>
			<trkpt lat="46.612914" lon="12.868582">
				<ele>1964.000000</ele>
			</trkpt>
			<trkpt lat="46.613006" lon="12.868798">
				<ele>1971.000000</ele>
			</trkpt>
			<trkpt lat="46.613068" lon="12.868870">
				<ele>1974.000000</ele>
			</trkpt>
			<trkpt lat="46.613087" lon="12.868924">
				<ele>1976.000000</ele>
			</trkpt>
			<trkpt lat="46.613087" lon="12.868968">
				<ele>1977.000000</ele>
			</trkpt>
			<trkpt lat="46.613093" lon="12.869077">
				<ele>1980.000000</ele>
			</trkpt>
			<trkpt lat="46.613135" lon="12.869174">
				<ele>1983.000000</ele>
			</trkpt>
			<trkpt lat="46.613191" lon="12.869256">
				<ele>1986.000000</ele>
			</trkpt>
			<trkpt lat="46.613308" lon="12.869498">
				<ele>1994.000000</ele>
			</trkpt>
			<trkpt lat="46.613351" lon="12.869677">
				<ele>1998.000000</ele>
			</trkpt>
			<trkpt lat="46.613438" lon="12.869885">
				<ele>2003.000000</ele>
			</trkpt>
			<trkpt lat="46.613536" lon="12.870056">
				<ele>2007.000000</ele>
			</trkpt>
			<trkpt lat="46.613636" lon="12.870199">
				<ele>2010.000000</ele>
			</trkpt>
			<trkpt lat="46.613660" lon="12.870298">
				<ele>2012.000000</ele>
			</trkpt>
			<trkpt lat="46.613691" lon="12.870333">
				<ele>2013.000000</ele>
			</trkpt>
			<trkpt lat="46.613703" lon="12.870415">
				<ele>2014.000000</ele>
			</trkpt>
			<trkpt lat="46.613716" lon="12.870505">
				<ele>2016.000000</ele>
			</trkpt>
			<trkpt lat="46.613722" lon="12.870603">
				<ele>2018.000000</ele>
			</trkpt>
			<trkpt lat="46.613746" lon="12.870675">
				<ele>2019.000000</ele>
			</trkpt>
			<trkpt lat="46.613790" lon="12.870685">
				<ele>2020.000000</ele>
			</trkpt>
			<trkpt lat="46.613814" lon="12.870658">
				<ele>2021.000000</ele>
			</trkpt>
			<trkpt lat="46.613846" lon="12.870658">
				<ele>2022.000000</ele>
			</trkpt>
			<trkpt lat="46.613858" lon="12.870675">
				<ele>2022.000000</ele>
			</trkpt>
			<trkpt lat="46.613882" lon="12.870648">
				<ele>2023.000000</ele>
			</trkpt>
			<trkpt lat="46.613919" lon="12.870658">
				<ele>2024.000000</ele>
			</trkpt>
			<trkpt lat="46.614018" lon="12.870738">
				<ele>2026.000000</ele>
			</trkpt>
			<trkpt lat="46.614092" lon="12.870774">
				<ele>2028.000000</ele>
			</trkpt>
			<trkpt lat="46.614117" lon="12.870765">
				<ele>2028.000000</ele>
			</trkpt>
			<trkpt lat="46.614166" lon="12.870756">
				<ele>2030.000000</ele>
			</trkpt>
			<trkpt lat="46.614209" lon="12.870765">
				<ele>2031.000000</ele>
			</trkpt>
			<trkpt lat="46.614247" lon="12.870809">
				<ele>2032.000000</ele>
			</trkpt>
			<trkpt lat="46.614253" lon="12.870899">
				<ele>2033.000000</ele>
			</trkpt>
			<trkpt lat="46.614290" lon="12.870972">
				<ele>2034.000000</ele>
			</trkpt>
			<trkpt lat="46.614296" lon="12.870998">
				<ele>2035.000000</ele>
			</trkpt>
			<trkpt lat="46.614290" lon="12.871025">
				<ele>2035.000000</ele>
			</trkpt>
			<trkpt lat="46.614259" lon="12.871061">
				<ele>2036.000000</ele>
			</trkpt>
			<trkpt lat="46.614265" lon="12.871088">
				<ele>2037.000000</ele>
			</trkpt>
			<trkpt lat="46.614283" lon="12.871124">
				<ele>2037.000000</ele>
			</trkpt>
			<trkpt lat="46.614314" lon="12.871169">
				<ele>2038.000000</ele>
			</trkpt>
			<trkpt lat="46.614326" lon="12.871196">
				<ele>2039.000000</ele>
			</trkpt>
			<trkpt lat="46.614351" lon="12.871214">
				<ele>2040.000000</ele>
			</trkpt>
			<trkpt lat="46.614376" lon="12.871285">
				<ele>2041.000000</ele>
			</trkpt>
			<trkpt lat="46.614401" lon="12.871304">
				<ele>2042.000000</ele>
			</trkpt>
			<trkpt lat="46.614432" lon="12.871304">
				<ele>2044.000000</ele>
			</trkpt>
			<trkpt lat="46.614469" lon="12.871331">
				<ele>2045.000000</ele>
			</trkpt>
			<trkpt lat="46.614487" lon="12.871385">
				<ele>2047.000000</ele>
			</trkpt>
			<trkpt lat="46.614438" lon="12.871403">
				<ele>2049.000000</ele>
			</trkpt>
			<trkpt lat="46.614426" lon="12.871438">
				<ele>2050.000000</ele>
			</trkpt>
			<trkpt lat="46.614438" lon="12.871520">
				<ele>2052.000000</ele>
			</trkpt>
			<trkpt lat="46.614432" lon="12.871591">
				<ele>2054.000000</ele>
			</trkpt>
			<trkpt lat="46.614419" lon="12.871645">
				<ele>2055.000000</ele>
			</trkpt>
			<trkpt lat="46.614413" lon="12.871727">
				<ele>2058.000000</ele>
			</trkpt>
			<trkpt lat="46.614426" lon="12.871843">
				<ele>2061.000000</ele>
			</trkpt>
			<trkpt lat="46.614426" lon="12.871914">
				<ele>2063.000000</ele>
			</trkpt>
			<trkpt lat="46.614450" lon="12.872157">
				<ele>2069.000000</ele>
			</trkpt>
			<trkpt lat="46.614456" lon="12.872166">
				<ele>2069.000000</ele>
			</trkpt>
			<trkpt lat="46.614475" lon="12.872157">
				<ele>2070.000000</ele>
			</trkpt>
			<trkpt lat="46.614518" lon="12.872094">
				<ele>2072.000000</ele>
			</trkpt>
			<trkpt lat="46.614536" lon="12.872077">
				<ele>2073.000000</ele>
			</trkpt>
			<trkpt lat="46.614555" lon="12.872130">
				<ele>2075.000000</ele>
			</trkpt>
			<trkpt lat="46.614549" lon="12.872238">
				<ele>2078.000000</ele>
			</trkpt>
			<trkpt lat="46.614580" lon="12.872319">
				<ele>2080.000000</ele>
			</trkpt>
			<trkpt lat="46.614611" lon="12.872356">
				<ele>2082.000000</ele>
			</trkpt>
			<trkpt lat="46.614678" lon="12.872453">
				<ele>2087.000000</ele>
			</trkpt>
			<trkpt lat="46.614721" lon="12.872535">
				<ele>2090.000000</ele>
			</trkpt>
			<trkpt lat="46.614758" lon="12.872589">
				<ele>2093.000000</ele>
			</trkpt>
			<trkpt lat="46.614752" lon="12.872633">
				<ele>2095.000000</ele>
			</trkpt>
			<trkpt lat="46.614789" lon="12.872633">
				<ele>2097.000000</ele>
			</trkpt>
			<trkpt lat="46.614814" lon="12.872714">
				<ele>2100.000000</ele>
			</trkpt>
			<trkpt lat="46.614870" lon="12.872804">
				<ele>2102.000000</ele>
			</trkpt>
			<trkpt lat="46.614888" lon="12.872876">
				<ele>2103.000000</ele>
			</trkpt>
			<trkpt lat="46.614931" lon="12.873029">
				<ele>2105.000000</ele>
			</trkpt>
			<trkpt lat="46.614975" lon="12.873109">
				<ele>2106.000000</ele>
			</trkpt>
			<trkpt lat="46.614993" lon="12.873235">
				<ele>2108.000000</ele>
			</trkpt>
			<trkpt lat="46.614999" lon="12.873369">
				<ele>2110.000000</ele>
			</trkpt>
			<trkpt lat="46.615018" lon="12.873442">
				<ele>2111.000000</ele>
			</trkpt>
			<trkpt lat="46.615055" lon="12.873496">
				<ele>2113.000000</ele>
			</trkpt>
			<trkpt lat="46.615079" lon="12.873585">
				<ele>2115.000000</ele>
			</trkpt>
			<trkpt lat="46.615055" lon="12.873631">
				<ele>2116.000000</ele>
			</trkpt>
			<trkpt lat="46.615055" lon="12.873694">
				<ele>2118.000000</ele>
			</trkpt>
			<trkpt lat="46.615085" lon="12.873756">
				<ele>2119.000000</ele>
			</trkpt>
			<trkpt lat="46.615153" lon="12.873846">
				<ele>2122.000000</ele>
			</trkpt>
			<trkpt lat="46.615197" lon="12.873954">
				<ele>2125.000000</ele>
			</trkpt>
			<trkpt lat="46.615234" lon="12.874008">
				<ele>2127.000000</ele>
			</trkpt>
			<trkpt lat="46.615246" lon="12.874071">
				<ele>2128.000000</ele>
			</trkpt>
			<trkpt lat="46.615283" lon="12.874124">
				<ele>2130.000000</ele>
			</trkpt>
			<trkpt lat="46.615271" lon="12.874205">
				<ele>2132.000000</ele>
			</trkpt>
			<trkpt lat="46.615283" lon="12.874295">
				<ele>2134.000000</ele>
			</trkpt>
			<trkpt lat="46.615314" lon="12.874394">
				<ele>2136.000000</ele>
			</trkpt>
			<trkpt lat="46.615376" lon="12.874403">
				<ele>2138.000000</ele>
			</trkpt>
			<trkpt lat="46.615462" lon="12.874564">
				<ele>2142.000000</ele>
			</trkpt>
			<trkpt lat="46.615474" lon="12.874744">
				<ele>2145.000000</ele>
			</trkpt>
			<trkpt lat="46.615499" lon="12.874826">
				<ele>2146.000000</ele>
			</trkpt>
			<trkpt lat="46.615573" lon="12.874906">
				<ele>2148.000000</ele>
			</trkpt>
			<trkpt lat="46.615604" lon="12.874996">
				<ele>2150.000000</ele>
			</trkpt>
			<trkpt lat="46.615617" lon="12.875095">
				<ele>2152.000000</ele>
			</trkpt>
			<trkpt lat="46.615659" lon="12.875167">
				<ele>2154.000000</ele>
			</trkpt>
			<trkpt lat="46.615678" lon="12.875302">
				<ele>2158.000000</ele>
			</trkpt>
			<trkpt lat="46.615672" lon="12.875310">
				<ele>2158.000000</ele>
			</trkpt>
			<trkpt lat="46.615653" lon="12.875356">
				<ele>2159.000000</ele>
			</trkpt>
			<trkpt lat="46.615641" lon="12.875400">
				<ele>2160.000000</ele>
			</trkpt>
			<trkpt lat="46.615647" lon="12.875436">
				<ele>2161.000000</ele>
			</trkpt>
			<trkpt lat="46.615653" lon="12.875454">
				<ele>2162.000000</ele>
			</trkpt>
			<trkpt lat="46.615672" lon="12.875490">
				<ele>2163.000000</ele>
			</trkpt>
			<trkpt lat="46.615672" lon="12.875517">
				<ele>2163.000000</ele>
			</trkpt>
			<trkpt lat="46.615690" lon="12.875562">
				<ele>2164.000000</ele>
			</trkpt>
			<trkpt lat="46.615733" lon="12.875706">
				<ele>2168.000000</ele>
			</trkpt>
			<trkpt lat="46.615721" lon="12.875840">
				<ele>2171.000000</ele>
			</trkpt>
			<trkpt lat="46.615721" lon="12.875939">
				<ele>2172.000000</ele>
			</trkpt>
			<trkpt lat="46.615758" lon="12.876048">
				<ele>2173.000000</ele>
			</trkpt>
			<trkpt lat="46.615802" lon="12.876119">
				<ele>2174.000000</ele>
			</trkpt>
			<trkpt lat="46.615869" lon="12.876146">
				<ele>2175.000000</ele>
			</trkpt>
			<trkpt lat="46.615912" lon="12.876209">
				<ele>2176.000000</ele>
			</trkpt>
			<trkpt lat="46.615931" lon="12.876281">
				<ele>2177.000000</ele>
			</trkpt>
			<trkpt lat="46.615918" lon="12.876335">
				<ele>2178.000000</ele>
			</trkpt>
			<trkpt lat="46.615918" lon="12.876371">
				<ele>2178.000000</ele>
			</trkpt>
			<trkpt lat="46.615925" lon="12.876406">
				<ele>2178.000000</ele>
			</trkpt>
			<trkpt lat="46.615943" lon="12.876424">
				<ele>2179.000000</ele>
			</trkpt>
			<trkpt lat="46.615993" lon="12.876442">
				<ele>2179.000000</ele>
			</trkpt>
			<trkpt lat="46.616116" lon="12.876379">
				<ele>2183.000000</ele>
			</trkpt>
			<trkpt lat="46.616197" lon="12.876379">
				<ele>2185.000000</ele>
			</trkpt>
			<trkpt lat="46.616215" lon="12.876434">
				<ele>2187.000000</ele>
			</trkpt>
			<trkpt lat="46.616246" lon="12.876478">
				<ele>2188.000000</ele>
			</trkpt>
			<trkpt lat="46.616382" lon="12.876559">
				<ele>2192.000000</ele>
			</trkpt>
			<trkpt lat="46.616437" lon="12.876577">
				<ele>2194.000000</ele>
			</trkpt>
			<trkpt lat="46.616455" lon="12.876585">
				<ele>2195.000000</ele>
			</trkpt>
			<trkpt lat="46.616467" lon="12.876614">
				<ele>2195.000000</ele>
			</trkpt>
			<trkpt lat="46.616467" lon="12.876640">
				<ele>2196.000000</ele>
			</trkpt>
			<trkpt lat="46.616449" lon="12.876658">
				<ele>2196.000000</ele>
			</trkpt>
			<trkpt lat="46.616437" lon="12.876711">
				<ele>2198.000000</ele>
			</trkpt>
			<trkpt lat="46.616449" lon="12.876748">
				<ele>2198.000000</ele>
			</trkpt>
			<trkpt lat="46.616511" lon="12.876811">
				<ele>2200.000000</ele>
			</trkpt>
			<trkpt lat="46.616579" lon="12.876954">
				<ele>2202.000000</ele>
			</trkpt>
			<trkpt lat="46.616646" lon="12.877035">
				<ele>2204.000000</ele>
			</trkpt>
			<trkpt lat="46.616702" lon="12.877098">
				<ele>2205.000000</ele>
			</trkpt>
			<trkpt lat="46.616727" lon="12.877134">
				<ele>2206.000000</ele>
			</trkpt>
			<trkpt lat="46.616770" lon="12.877117">
				<ele>2207.000000</ele>
			</trkpt>
			<trkpt lat="46.616807" lon="12.877107">
				<ele>2207.000000</ele>
			</trkpt>
			<trkpt lat="46.616838" lon="12.877098">
				<ele>2208.000000</ele>
			</trkpt>
			<trkpt lat="46.616881" lon="12.877107">
				<ele>2208.000000</ele>
			</trkpt>
			<trkpt lat="46.616893" lon="12.877151">
				<ele>2209.000000</ele>
			</trkpt>
			<trkpt lat="46.616974" lon="12.877241">
				<ele>2211.000000</ele>
			</trkpt>
			<trkpt lat="46.617023" lon="12.877287">
				<ele>2212.000000</ele>
			</trkpt>
			<trkpt lat="46.617072" lon="12.877277">
				<ele>2213.000000</ele>
			</trkpt>
			<trkpt lat="46.617122" lon="12.877296">
				<ele>2213.000000</ele>
			</trkpt>
			<trkpt lat="46.617171" lon="12.877323">
				<ele>2214.000000</ele>
			</trkpt>
			<trkpt lat="46.617245" lon="12.877421">
				<ele>2216.000000</ele>
			</trkpt>
			<trkpt lat="46.617270" lon="12.877457">
				<ele>2217.000000</ele>
			</trkpt>
			<trkpt lat="46.617307" lon="12.877637">
				<ele>2219.000000</ele>
			</trkpt>
			<trkpt lat="46.617356" lon="12.877916">
				<ele>2223.000000</ele>
			</trkpt>
			<trkpt lat="46.617455" lon="12.878023">
				<ele>2226.000000</ele>
			</trkpt>
			<trkpt lat="46.617455" lon="12.878059">
				<ele>2227.000000</ele>
			</trkpt>
			<trkpt lat="46.617479" lon="12.878096">
				<ele>2228.000000</ele>
			</trkpt>
			<trkpt lat="46.617510" lon="12.878132">
				<ele>2228.000000</ele>
			</trkpt>
			<trkpt lat="46.617492" lon="12.878176">
				<ele>2229.000000</ele>
			</trkpt>
			<trkpt lat="46.617442" lon="12.878283">
				<ele>2232.000000</ele>
			</trkpt>
			<trkpt lat="46.617400" lon="12.878329">
				<ele>2234.000000</ele>
			</trkpt>
			<trkpt lat="46.617406" lon="12.878401">
				<ele>2236.000000</ele>
			</trkpt>
			<trkpt lat="46.617418" lon="12.878472">
				<ele>2238.000000</ele>
			</trkpt>
			<trkpt lat="46.617412" lon="12.878572">
				<ele>2240.000000</ele>
			</trkpt>
			<trkpt lat="46.617400" lon="12.878589">
				<ele>2241.000000</ele>
			</trkpt>
			<trkpt lat="46.617363" lon="12.878608">
				<ele>2242.000000</ele>
			</trkpt>
			<trkpt lat="46.617319" lon="12.878616">
				<ele>2244.000000</ele>
			</trkpt>
			<trkpt lat="46.617301" lon="12.878652">
				<ele>2245.000000</ele>
			</trkpt>
			<trkpt lat="46.617313" lon="12.878679">
				<ele>2245.000000</ele>
			</trkpt>
			<trkpt lat="46.617325" lon="12.878724">
				<ele>2246.000000</ele>
			</trkpt>
			<trkpt lat="46.617313" lon="12.878778">
				<ele>2248.000000</ele>
			</trkpt>
			<trkpt lat="46.617301" lon="12.878814">
				<ele>2249.000000</ele>
			</trkpt>
			<trkpt lat="46.617251" lon="12.878841">
				<ele>2250.000000</ele>
			</trkpt>
			<trkpt lat="46.617245" lon="12.878885">
				<ele>2251.000000</ele>
			</trkpt>
			<trkpt lat="46.617239" lon="12.878948">
				<ele>2253.000000</ele>
			</trkpt>
			<trkpt lat="46.617227" lon="12.878967">
				<ele>2253.000000</ele>
			</trkpt>
			<trkpt lat="46.617220" lon="12.878985">
				<ele>2254.000000</ele>
			</trkpt>
			<trkpt lat="46.617257" lon="12.879011">
				<ele>2255.000000</ele>
			</trkpt>
			<trkpt lat="46.617294" lon="12.879056">
				<ele>2257.000000</ele>
			</trkpt>
			<trkpt lat="46.617338" lon="12.879056">
				<ele>2258.000000</ele>
			</trkpt>
			<trkpt lat="46.617363" lon="12.879084">
				<ele>2259.000000</ele>
			</trkpt>
			<trkpt lat="46.617381" lon="12.879128">
				<ele>2260.000000</ele>
			</trkpt>
			<trkpt lat="46.617387" lon="12.879201">
				<ele>2262.000000</ele>
			</trkpt>
			<trkpt lat="46.617375" lon="12.879272">
				<ele>2264.000000</ele>
			</trkpt>
			<trkpt lat="46.617363" lon="12.879325">
				<ele>2265.000000</ele>
			</trkpt>
			<trkpt lat="46.617338" lon="12.879388">
				<ele>2267.000000</ele>
			</trkpt>
			<trkpt lat="46.617325" lon="12.879461">
				<ele>2268.000000</ele>
			</trkpt>
			<trkpt lat="46.617350" lon="12.879541">
				<ele>2270.000000</ele>
			</trkpt>
			<trkpt lat="46.617375" lon="12.879577">
				<ele>2272.000000</ele>
			</trkpt>
			<trkpt lat="46.617400" lon="12.879614">
				<ele>2273.000000</ele>
			</trkpt>
			<trkpt lat="46.617406" lon="12.879640">
				<ele>2274.000000</ele>
			</trkpt>
			<trkpt lat="46.617406" lon="12.879703">
				<ele>2275.000000</ele>
			</trkpt>
			<trkpt lat="46.617406" lon="12.879793">
				<ele>2278.000000</ele>
			</trkpt>
			<trkpt lat="46.617400" lon="12.879847">
				<ele>2279.000000</ele>
			</trkpt>
			<trkpt lat="46.617424" lon="12.879927">
				<ele>2281.000000</ele>
			</trkpt>
			<trkpt lat="46.617479" lon="12.880054">
				<ele>2286.000000</ele>
			</trkpt>
			<trkpt lat="46.617492" lon="12.880107">
				<ele>2288.000000</ele>
			</trkpt>
			<trkpt lat="46.617510" lon="12.880143">
				<ele>2289.000000</ele>
			</trkpt>
			<trkpt lat="46.617548" lon="12.880161">
				<ele>2291.000000</ele>
			</trkpt>
			<trkpt lat="46.617579" lon="12.880134">
				<ele>2292.000000</ele>
			</trkpt>
			<trkpt lat="46.617603" lon="12.880090">
				<ele>2293.000000</ele>
			</trkpt>
			<trkpt lat="46.617621" lon="12.880036">
				<ele>2295.000000</ele>
			</trkpt>
			<trkpt lat="46.617677" lon="12.879964">
				<ele>2297.000000</ele>
			</trkpt>
			<trkpt lat="46.617714" lon="12.879954">
				<ele>2298.000000</ele>
			</trkpt>
			<trkpt lat="46.617776" lon="12.879891">
				<ele>2301.000000</ele>
			</trkpt>
			<trkpt lat="46.617788" lon="12.879838">
				<ele>2303.000000</ele>
			</trkpt>
			<trkpt lat="46.617807" lon="12.879811">
				<ele>2304.000000</ele>
			</trkpt>
			<trkpt lat="46.617831" lon="12.879820">
				<ele>2305.000000</ele>
			</trkpt>
			<trkpt lat="46.617850" lon="12.879856">
				<ele>2306.000000</ele>
			</trkpt>
			<trkpt lat="46.617868" lon="12.879937">
				<ele>2308.000000</ele>
			</trkpt>
			<trkpt lat="46.617887" lon="12.879981">
				<ele>2310.000000</ele>
			</trkpt>
			<trkpt lat="46.617912" lon="12.880017">
				<ele>2312.000000</ele>
			</trkpt>
			<trkpt lat="46.617936" lon="12.880054">
				<ele>2314.000000</ele>
			</trkpt>
			<trkpt lat="46.617936" lon="12.880098">
				<ele>2316.000000</ele>
			</trkpt>
			<trkpt lat="46.617949" lon="12.880170">
				<ele>2319.000000</ele>
			</trkpt>
			<trkpt lat="46.617961" lon="12.880216">
				<ele>2321.000000</ele>
			</trkpt>
			<trkpt lat="46.617974" lon="12.880224">
				<ele>2321.000000</ele>
			</trkpt>
			<trkpt lat="46.617980" lon="12.880243">
				<ele>2322.000000</ele>
			</trkpt>
			<trkpt lat="46.617980" lon="12.880260">
				<ele>2322.000000</ele>
			</trkpt>
			<trkpt lat="46.617961" lon="12.880296">
				<ele>2323.000000</ele>
			</trkpt>
			<trkpt lat="46.617986" lon="12.880341">
				<ele>2325.000000</ele>
			</trkpt>
			<trkpt lat="46.618010" lon="12.880386">
				<ele>2327.000000</ele>
			</trkpt>
			<trkpt lat="46.618029" lon="12.880404">
				<ele>2327.000000</ele>
			</trkpt>
			<trkpt lat="46.618047" lon="12.880440">
				<ele>2329.000000</ele>
			</trkpt>
			<trkpt lat="46.618072" lon="12.880440">
				<ele>2330.000000</ele>
			</trkpt>
			<trkpt lat="46.618103" lon="12.880467">
				<ele>2331.000000</ele>
			</trkpt>
			<trkpt lat="46.618134" lon="12.880512">
				<ele>2333.000000</ele>
			</trkpt>
			<trkpt lat="46.618171" lon="12.880547">
				<ele>2335.000000</ele>
			</trkpt>
			<trkpt lat="46.618183" lon="12.880547">
				<ele>2335.000000</ele>
			</trkpt>
			<trkpt lat="46.618189" lon="12.880566">
				<ele>2336.000000</ele>
			</trkpt>
			<trkpt lat="46.618202" lon="12.880539">
				<ele>2337.000000</ele>
			</trkpt>
			<trkpt lat="46.618257" lon="12.880547">
				<ele>2339.000000</ele>
			</trkpt>
			<trkpt lat="46.618307" lon="12.880556">
				<ele>2341.000000</ele>
			</trkpt>
			<trkpt lat="46.618325" lon="12.880593">
				<ele>2342.000000</ele>
			</trkpt>
			<trkpt lat="46.618344" lon="12.880629">
				<ele>2343.000000</ele>
			</trkpt>
			<trkpt lat="46.618362" lon="12.880673">
				<ele>2344.000000</ele>
			</trkpt>
			<trkpt lat="46.618417" lon="12.880809">
				<ele>2348.000000</ele>
			</trkpt>
			<trkpt lat="46.618454" lon="12.880889">
				<ele>2351.000000</ele>
			</trkpt>
			<trkpt lat="46.618473" lon="12.881006">
				<ele>2354.000000</ele>
			</trkpt>
			<trkpt lat="46.618516" lon="12.881033">
				<ele>2356.000000</ele>
			</trkpt>
			<trkpt lat="46.618523" lon="12.881105">
				<ele>2358.000000</ele>
			</trkpt>
			<trkpt lat="46.618529" lon="12.881168">
				<ele>2359.000000</ele>
			</trkpt>
			<trkpt lat="46.618516" lon="12.881203">
				<ele>2360.000000</ele>
			</trkpt>
			<trkpt lat="46.618510" lon="12.881275">
				<ele>2361.000000</ele>
			</trkpt>
			<trkpt lat="46.618510" lon="12.881375">
				<ele>2363.000000</ele>
			</trkpt>
			<trkpt lat="46.618510" lon="12.881438">
				<ele>2364.000000</ele>
			</trkpt>
			<trkpt lat="46.618504" lon="12.881518">
				<ele>2366.000000</ele>
			</trkpt>
			<trkpt lat="46.618504" lon="12.881562">
				<ele>2367.000000</ele>
			</trkpt>
			<trkpt lat="46.618535" lon="12.881572">
				<ele>2368.000000</ele>
			</trkpt>
			<trkpt lat="46.618547" lon="12.881589">
				<ele>2369.000000</ele>
			</trkpt>
			<trkpt lat="46.618584" lon="12.881698">
				<ele>2371.000000</ele>
			</trkpt>
			<trkpt lat="46.618609" lon="12.881734">
				<ele>2372.000000</ele>
			</trkpt>
			<trkpt lat="46.618633" lon="12.881698">
				<ele>2373.000000</ele>
			</trkpt>
			<trkpt lat="46.618639" lon="12.881635">
				<ele>2375.000000</ele>
			</trkpt>
			<trkpt lat="46.618677" lon="12.881662">
				<ele>2376.000000</ele>
			</trkpt>
			<trkpt lat="46.618695" lon="12.881625">
				<ele>2377.000000</ele>
			</trkpt>
			<trkpt lat="46.618714" lon="12.881589">
				<ele>2378.000000</ele>
			</trkpt>
			<trkpt lat="46.618757" lon="12.881608">
				<ele>2380.000000</ele>
			</trkpt>
			<trkpt lat="46.618788" lon="12.881625">
				<ele>2381.000000</ele>
			</trkpt>
			<trkpt lat="46.618800" lon="12.881581">
				<ele>2382.000000</ele>
			</trkpt>
			<trkpt lat="46.618812" lon="12.881554">
				<ele>2383.000000</ele>
			</trkpt>
			<trkpt lat="46.618837" lon="12.881562">
				<ele>2384.000000</ele>
			</trkpt>
			<trkpt lat="46.618855" lon="12.881572">
				<ele>2385.000000</ele>
			</trkpt>
			<trkpt lat="46.618886" lon="12.881608">
				<ele>2387.000000</ele>
			</trkpt>
			<trkpt lat="46.618924" lon="12.881644">
				<ele>2389.000000</ele>
			</trkpt>
			<trkpt lat="46.618967" lon="12.881635">
				<ele>2391.000000</ele>
			</trkpt>
			<trkpt lat="46.619022" lon="12.881688">
				<ele>2394.000000</ele>
			</trkpt>
			<trkpt lat="46.619059" lon="12.881679">
				<ele>2396.000000</ele>
			</trkpt>
			<trkpt lat="46.619078" lon="12.881662">
				<ele>2397.000000</ele>
			</trkpt>
			<trkpt lat="46.619084" lon="12.881625">
				<ele>2398.000000</ele>
			</trkpt>
			<trkpt lat="46.619071" lon="12.881562">
				<ele>2400.000000</ele>
			</trkpt>
			<trkpt lat="46.619096" lon="12.881535">
				<ele>2401.000000</ele>
			</trkpt>
			<trkpt lat="46.619102" lon="12.881499">
				<ele>2401.000000</ele>
			</trkpt>
			<trkpt lat="46.619158" lon="12.881518">
				<ele>2403.000000</ele>
			</trkpt>
			<trkpt lat="46.619170" lon="12.881464">
				<ele>2404.000000</ele>
			</trkpt>
			<trkpt lat="46.619201" lon="12.881472">
				<ele>2405.000000</ele>
			</trkpt>
			<trkpt lat="46.619219" lon="12.881464">
				<ele>2406.000000</ele>
			</trkpt>
			<trkpt lat="46.619250" lon="12.881455">
				<ele>2406.000000</ele>
			</trkpt>
			<trkpt lat="46.619288" lon="12.881472">
				<ele>2408.000000</ele>
			</trkpt>
			<trkpt lat="46.619325" lon="12.881472">
				<ele>2409.000000</ele>
			</trkpt>
			<trkpt lat="46.619380" lon="12.881482">
				<ele>2410.000000</ele>
			</trkpt>
			<trkpt lat="46.619404" lon="12.881491">
				<ele>2411.000000</ele>
			</trkpt>
			<trkpt lat="46.619423" lon="12.881518">
				<ele>2412.000000</ele>
			</trkpt>
			<trkpt lat="46.619442" lon="12.881572">
				<ele>2413.000000</ele>
			</trkpt>
			<trkpt lat="46.619435" lon="12.881598">
				<ele>2414.000000</ele>
			</trkpt>
			<trkpt lat="46.619417" lon="12.881625">
				<ele>2414.000000</ele>
			</trkpt>
			<trkpt lat="46.619423" lon="12.881652">
				<ele>2415.000000</ele>
			</trkpt>
			<trkpt lat="46.619429" lon="12.881706">
				<ele>2416.000000</ele>
			</trkpt>
			<trkpt lat="46.619448" lon="12.881751">
				<ele>2417.000000</ele>
			</trkpt>
			<trkpt lat="46.619473" lon="12.881805">
				<ele>2418.000000</ele>
			</trkpt>
			<trkpt lat="46.619473" lon="12.881922">
				<ele>2420.000000</ele>
			</trkpt>
			<trkpt lat="46.619504" lon="12.881985">
				<ele>2422.000000</ele>
			</trkpt>
			<trkpt lat="46.619528" lon="12.882111">
				<ele>2425.000000</ele>
			</trkpt>
			<trkpt lat="46.619577" lon="12.882237">
				<ele>2427.000000</ele>
			</trkpt>
			<trkpt lat="46.619608" lon="12.882290">
				<ele>2429.000000</ele>
			</trkpt>
			<trkpt lat="46.619633" lon="12.882354">
				<ele>2430.000000</ele>
			</trkpt>
			<trkpt lat="46.619664" lon="12.882407">
				<ele>2432.000000</ele>
			</trkpt>
			<trkpt lat="46.619664" lon="12.882417">
				<ele>2432.000000</ele>
			</trkpt>
			<trkpt lat="46.619658" lon="12.882480">
				<ele>2434.000000</ele>
			</trkpt>
			<trkpt lat="46.619658" lon="12.882631">
				<ele>2437.000000</ele>
			</trkpt>
			<trkpt lat="46.619658" lon="12.882704">
				<ele>2439.000000</ele>
			</trkpt>
			<trkpt lat="46.619639" lon="12.882757">
				<ele>2440.000000</ele>
			</trkpt>
			<trkpt lat="46.619633" lon="12.882793">
				<ele>2441.000000</ele>
			</trkpt>
			<trkpt lat="46.619608" lon="12.882811">
				<ele>2442.000000</ele>
			</trkpt>
			<trkpt lat="46.619596" lon="12.882866">
				<ele>2444.000000</ele>
			</trkpt>
			<trkpt lat="46.619590" lon="12.882919">
				<ele>2445.000000</ele>
			</trkpt>
			<trkpt lat="46.619590" lon="12.882964">
				<ele>2446.000000</ele>
			</trkpt>
			<trkpt lat="46.619577" lon="12.883017">
				<ele>2447.000000</ele>
			</trkpt>
			<trkpt lat="46.619577" lon="12.883046">
				<ele>2448.000000</ele>
			</trkpt>
			<trkpt lat="46.619577" lon="12.883099">
				<ele>2449.000000</ele>
			</trkpt>
			<trkpt lat="46.619565" lon="12.883287">
				<ele>2455.000000</ele>
			</trkpt>
			<trkpt lat="46.619559" lon="12.883359">
				<ele>2458.000000</ele>
			</trkpt>
			<trkpt lat="46.619559" lon="12.883404">
				<ele>2460.000000</ele>
			</trkpt>
			<trkpt lat="46.619559" lon="12.883404">
				<ele>2460.000000</ele>
			</trkpt>
			<trkpt lat="46.619559" lon="12.883359">
				<ele>2458.000000</ele>
			</trkpt>
			<trkpt lat="46.619565" lon="12.883287">
				<ele>2455.000000</ele>
			</trkpt>
			<trkpt lat="46.619577" lon="12.883099">
				<ele>2449.000000</ele>
			</trkpt>
			<trkpt lat="46.619577" lon="12.883046">
				<ele>2448.000000</ele>
			</trkpt>
			<trkpt lat="46.619577" lon="12.883017">
				<ele>2447.000000</ele>
			</trkpt>
			<trkpt lat="46.619590" lon="12.882964">
				<ele>2446.000000</ele>
			</trkpt>
			<trkpt lat="46.619590" lon="12.882919">
				<ele>2445.000000</ele>
			</trkpt>
			<trkpt lat="46.619596" lon="12.882866">
				<ele>2444.000000</ele>
			</trkpt>
			<trkpt lat="46.619608" lon="12.882811">
				<ele>2442.000000</ele>
			</trkpt>
			<trkpt lat="46.619633" lon="12.882793">
				<ele>2441.000000</ele>
			</trkpt>
			<trkpt lat="46.619639" lon="12.882757">
				<ele>2440.000000</ele>
			</trkpt>
			<trkpt lat="46.619658" lon="12.882704">
				<ele>2439.000000</ele>
			</trkpt>
			<trkpt lat="46.619658" lon="12.882631">
				<ele>2437.000000</ele>
			</trkpt>
			<trkpt lat="46.619658" lon="12.882480">
				<ele>2434.000000</ele>
			</trkpt>
			<trkpt lat="46.619664" lon="12.882417">
				<ele>2432.000000</ele>
			</trkpt>
			<trkpt lat="46.619664" lon="12.882407">
				<ele>2432.000000</ele>
			</trkpt>
			<trkpt lat="46.619633" lon="12.882354">
				<ele>2430.000000</ele>
			</trkpt>
			<trkpt lat="46.619608" lon="12.882290">
				<ele>2429.000000</ele>
			</trkpt>
			<trkpt lat="46.619577" lon="12.882237">
				<ele>2427.000000</ele>
			</trkpt>
			<trkpt lat="46.619528" lon="12.882111">
				<ele>2425.000000</ele>
			</trkpt>
			<trkpt lat="46.619504" lon="12.881985">
				<ele>2422.000000</ele>
			</trkpt>
			<trkpt lat="46.619473" lon="12.881922">
				<ele>2420.000000</ele>
			</trkpt>
			<trkpt lat="46.619473" lon="12.881805">
				<ele>2418.000000</ele>
			</trkpt>
			<trkpt lat="46.619448" lon="12.881751">
				<ele>2417.000000</ele>
			</trkpt>
			<trkpt lat="46.619429" lon="12.881706">
				<ele>2416.000000</ele>
			</trkpt>
			<trkpt lat="46.619423" lon="12.881652">
				<ele>2415.000000</ele>
			</trkpt>
			<trkpt lat="46.619417" lon="12.881625">
				<ele>2414.000000</ele>
			</trkpt>
			<trkpt lat="46.619435" lon="12.881598">
				<ele>2414.000000</ele>
			</trkpt>
			<trkpt lat="46.619442" lon="12.881572">
				<ele>2413.000000</ele>
			</trkpt>
			<trkpt lat="46.619423" lon="12.881518">
				<ele>2412.000000</ele>
			</trkpt>
			<trkpt lat="46.619404" lon="12.881491">
				<ele>2411.000000</ele>
			</trkpt>
			<trkpt lat="46.619380" lon="12.881482">
				<ele>2410.000000</ele>
			</trkpt>
			<trkpt lat="46.619325" lon="12.881472">
				<ele>2409.000000</ele>
			</trkpt>
			<trkpt lat="46.619288" lon="12.881472">
				<ele>2408.000000</ele>
			</trkpt>
			<trkpt lat="46.619250" lon="12.881455">
				<ele>2406.000000</ele>
			</trkpt>
			<trkpt lat="46.619219" lon="12.881464">
				<ele>2406.000000</ele>
			</trkpt>
			<trkpt lat="46.619201" lon="12.881472">
				<ele>2405.000000</ele>
			</trkpt>
			<trkpt lat="46.619170" lon="12.881464">
				<ele>2404.000000</ele>
			</trkpt>
			<trkpt lat="46.619158" lon="12.881518">
				<ele>2403.000000</ele>
			</trkpt>
			<trkpt lat="46.619102" lon="12.881499">
				<ele>2401.000000</ele>
			</trkpt>
			<trkpt lat="46.619096" lon="12.881535">
				<ele>2401.000000</ele>
			</trkpt>
			<trkpt lat="46.619071" lon="12.881562">
				<ele>2400.000000</ele>
			</trkpt>
			<trkpt lat="46.619084" lon="12.881625">
				<ele>2398.000000</ele>
			</trkpt>
			<trkpt lat="46.619078" lon="12.881662">
				<ele>2397.000000</ele>
			</trkpt>
			<trkpt lat="46.619059" lon="12.881679">
				<ele>2396.000000</ele>
			</trkpt>
			<trkpt lat="46.619022" lon="12.881688">
				<ele>2394.000000</ele>
			</trkpt>
			<trkpt lat="46.618967" lon="12.881635">
				<ele>2391.000000</ele>
			</trkpt>
			<trkpt lat="46.618924" lon="12.881644">
				<ele>2389.000000</ele>
			</trkpt>
			<trkpt lat="46.618886" lon="12.881608">
				<ele>2387.000000</ele>
			</trkpt>
			<trkpt lat="46.618855" lon="12.881572">
				<ele>2385.000000</ele>
			</trkpt>
			<trkpt lat="46.618837" lon="12.881562">
				<ele>2384.000000</ele>
			</trkpt>
			<trkpt lat="46.618812" lon="12.881554">
				<ele>2383.000000</ele>
			</trkpt>
			<trkpt lat="46.618800" lon="12.881581">
				<ele>2382.000000</ele>
			</trkpt>
			<trkpt lat="46.618788" lon="12.881625">
				<ele>2381.000000</ele>
			</trkpt>
			<trkpt lat="46.618757" lon="12.881608">
				<ele>2380.000000</ele>
			</trkpt>
			<trkpt lat="46.618714" lon="12.881589">
				<ele>2378.000000</ele>
			</trkpt>
			<trkpt lat="46.618695" lon="12.881625">
				<ele>2377.000000</ele>
			</trkpt>
			<trkpt lat="46.618677" lon="12.881662">
				<ele>2376.000000</ele>
			</trkpt>
			<trkpt lat="46.618639" lon="12.881635">
				<ele>2375.000000</ele>
			</trkpt>
			<trkpt lat="46.618633" lon="12.881698">
				<ele>2373.000000</ele>
			</trkpt>
			<trkpt lat="46.618609" lon="12.881734">
				<ele>2372.000000</ele>
			</trkpt>
			<trkpt lat="46.618584" lon="12.881698">
				<ele>2371.000000</ele>
			</trkpt>
			<trkpt lat="46.618547" lon="12.881589">
				<ele>2369.000000</ele>
			</trkpt>
			<trkpt lat="46.618535" lon="12.881572">
				<ele>2368.000000</ele>
			</trkpt>
			<trkpt lat="46.618504" lon="12.881562">
				<ele>2367.000000</ele>
			</trkpt>
			<trkpt lat="46.618504" lon="12.881518">
				<ele>2366.000000</ele>
			</trkpt>
			<trkpt lat="46.618510" lon="12.881438">
				<ele>2364.000000</ele>
			</trkpt>
			<trkpt lat="46.618510" lon="12.881375">
				<ele>2363.000000</ele>
			</trkpt>
			<trkpt lat="46.618510" lon="12.881275">
				<ele>2361.000000</ele>
			</trkpt>
			<trkpt lat="46.618516" lon="12.881203">
				<ele>2360.000000</ele>
			</trkpt>
			<trkpt lat="46.618529" lon="12.881168">
				<ele>2359.000000</ele>
			</trkpt>
			<trkpt lat="46.618523" lon="12.881105">
				<ele>2358.000000</ele>
			</trkpt>
			<trkpt lat="46.618516" lon="12.881033">
				<ele>2356.000000</ele>
			</trkpt>
			<trkpt lat="46.618473" lon="12.881006">
				<ele>2354.000000</ele>
			</trkpt>
			<trkpt lat="46.618454" lon="12.880889">
				<ele>2351.000000</ele>
			</trkpt>
			<trkpt lat="46.618417" lon="12.880809">
				<ele>2348.000000</ele>
			</trkpt>
			<trkpt lat="46.618362" lon="12.880673">
				<ele>2344.000000</ele>
			</trkpt>
			<trkpt lat="46.618344" lon="12.880629">
				<ele>2343.000000</ele>
			</trkpt>
			<trkpt lat="46.618325" lon="12.880593">
				<ele>2342.000000</ele>
			</trkpt>
			<trkpt lat="46.618307" lon="12.880556">
				<ele>2341.000000</ele>
			</trkpt>
			<trkpt lat="46.618257" lon="12.880547">
				<ele>2339.000000</ele>
			</trkpt>
			<trkpt lat="46.618202" lon="12.880539">
				<ele>2337.000000</ele>
			</trkpt>
			<trkpt lat="46.618189" lon="12.880566">
				<ele>2336.000000</ele>
			</trkpt>
			<trkpt lat="46.618183" lon="12.880547">
				<ele>2335.000000</ele>
			</trkpt>
			<trkpt lat="46.618171" lon="12.880547">
				<ele>2335.000000</ele>
			</trkpt>
			<trkpt lat="46.618134" lon="12.880512">
				<ele>2333.000000</ele>
			</trkpt>
			<trkpt lat="46.618103" lon="12.880467">
				<ele>2331.000000</ele>
			</trkpt>
			<trkpt lat="46.618072" lon="12.880440">
				<ele>2330.000000</ele>
			</trkpt>
			<trkpt lat="46.618047" lon="12.880440">
				<ele>2329.000000</ele>
			</trkpt>
			<trkpt lat="46.618029" lon="12.880404">
				<ele>2327.000000</ele>
			</trkpt>
			<trkpt lat="46.618010" lon="12.880386">
				<ele>2327.000000</ele>
			</trkpt>
			<trkpt lat="46.617986" lon="12.880341">
				<ele>2325.000000</ele>
			</trkpt>
			<trkpt lat="46.617961" lon="12.880296">
				<ele>2323.000000</ele>
			</trkpt>
			<trkpt lat="46.617980" lon="12.880260">
				<ele>2322.000000</ele>
			</trkpt>
			<trkpt lat="46.617980" lon="12.880243">
				<ele>2322.000000</ele>
			</trkpt>
			<trkpt lat="46.617974" lon="12.880224">
				<ele>2321.000000</ele>
			</trkpt>
			<trkpt lat="46.617961" lon="12.880216">
				<ele>2321.000000</ele>
			</trkpt>
			<trkpt lat="46.617949" lon="12.880170">
				<ele>2319.000000</ele>
			</trkpt>
			<trkpt lat="46.617936" lon="12.880098">
				<ele>2316.000000</ele>
			</trkpt>
			<trkpt lat="46.617936" lon="12.880054">
				<ele>2314.000000</ele>
			</trkpt>
			<trkpt lat="46.617912" lon="12.880017">
				<ele>2312.000000</ele>
			</trkpt>
			<trkpt lat="46.617887" lon="12.879981">
				<ele>2310.000000</ele>
			</trkpt>
			<trkpt lat="46.617868" lon="12.879937">
				<ele>2308.000000</ele>
			</trkpt>
			<trkpt lat="46.617850" lon="12.879856">
				<ele>2306.000000</ele>
			</trkpt>
			<trkpt lat="46.617831" lon="12.879820">
				<ele>2305.000000</ele>
			</trkpt>
			<trkpt lat="46.617807" lon="12.879811">
				<ele>2304.000000</ele>
			</trkpt>
			<trkpt lat="46.617788" lon="12.879838">
				<ele>2303.000000</ele>
			</trkpt>
			<trkpt lat="46.617776" lon="12.879891">
				<ele>2301.000000</ele>
			</trkpt>
			<trkpt lat="46.617714" lon="12.879954">
				<ele>2298.000000</ele>
			</trkpt>
			<trkpt lat="46.617677" lon="12.879964">
				<ele>2297.000000</ele>
			</trkpt>
			<trkpt lat="46.617621" lon="12.880036">
				<ele>2295.000000</ele>
			</trkpt>
			<trkpt lat="46.617603" lon="12.880090">
				<ele>2293.000000</ele>
			</trkpt>
			<trkpt lat="46.617579" lon="12.880134">
				<ele>2292.000000</ele>
			</trkpt>
			<trkpt lat="46.617548" lon="12.880161">
				<ele>2291.000000</ele>
			</trkpt>
			<trkpt lat="46.617510" lon="12.880143">
				<ele>2289.000000</ele>
			</trkpt>
			<trkpt lat="46.617492" lon="12.880107">
				<ele>2288.000000</ele>
			</trkpt>
			<trkpt lat="46.617479" lon="12.880054">
				<ele>2286.000000</ele>
			</trkpt>
			<trkpt lat="46.617424" lon="12.879927">
				<ele>2281.000000</ele>
			</trkpt>
			<trkpt lat="46.617400" lon="12.879847">
				<ele>2279.000000</ele>
			</trkpt>
			<trkpt lat="46.617406" lon="12.879793">
				<ele>2278.000000</ele>
			</trkpt>
			<trkpt lat="46.617406" lon="12.879703">
				<ele>2275.000000</ele>
			</trkpt>
			<trkpt lat="46.617406" lon="12.879640">
				<ele>2274.000000</ele>
			</trkpt>
			<trkpt lat="46.617400" lon="12.879614">
				<ele>2273.000000</ele>
			</trkpt>
			<trkpt lat="46.617375" lon="12.879577">
				<ele>2272.000000</ele>
			</trkpt>
			<trkpt lat="46.617350" lon="12.879541">
				<ele>2270.000000</ele>
			</trkpt>
			<trkpt lat="46.617325" lon="12.879461">
				<ele>2268.000000</ele>
			</trkpt>
			<trkpt lat="46.617338" lon="12.879388">
				<ele>2267.000000</ele>
			</trkpt>
			<trkpt lat="46.617363" lon="12.879325">
				<ele>2265.000000</ele>
			</trkpt>
			<trkpt lat="46.617375" lon="12.879272">
				<ele>2264.000000</ele>
			</trkpt>
			<trkpt lat="46.617387" lon="12.879201">
				<ele>2262.000000</ele>
			</trkpt>
			<trkpt lat="46.617381" lon="12.879128">
				<ele>2260.000000</ele>
			</trkpt>
			<trkpt lat="46.617363" lon="12.879084">
				<ele>2259.000000</ele>
			</trkpt>
			<trkpt lat="46.617338" lon="12.879056">
				<ele>2258.000000</ele>
			</trkpt>
			<trkpt lat="46.617294" lon="12.879056">
				<ele>2257.000000</ele>
			</trkpt>
			<trkpt lat="46.617257" lon="12.879011">
				<ele>2255.000000</ele>
			</trkpt>
			<trkpt lat="46.617220" lon="12.878985">
				<ele>2254.000000</ele>
			</trkpt>
			<trkpt lat="46.617196" lon="12.879038">
				<ele>2253.000000</ele>
			</trkpt>
			<trkpt lat="46.617116" lon="12.879048">
				<ele>2251.000000</ele>
			</trkpt>
			<trkpt lat="46.617072" lon="12.878994">
				<ele>2249.000000</ele>
			</trkpt>
			<trkpt lat="46.616999" lon="12.878885">
				<ele>2247.000000</ele>
			</trkpt>
			<trkpt lat="46.616881" lon="12.878849">
				<ele>2245.000000</ele>
			</trkpt>
			<trkpt lat="46.616801" lon="12.878868">
				<ele>2244.000000</ele>
			</trkpt>
			<trkpt lat="46.616776" lon="12.878931">
				<ele>2243.000000</ele>
			</trkpt>
			<trkpt lat="46.616844" lon="12.879011">
				<ele>2241.000000</ele>
			</trkpt>
			<trkpt lat="46.616887" lon="12.879092">
				<ele>2240.000000</ele>
			</trkpt>
			<trkpt lat="46.616826" lon="12.879353">
				<ele>2236.000000</ele>
			</trkpt>
			<trkpt lat="46.616776" lon="12.879551">
				<ele>2233.000000</ele>
			</trkpt>
			<trkpt lat="46.616677" lon="12.879811">
				<ele>2230.000000</ele>
			</trkpt>
			<trkpt lat="46.616567" lon="12.880063">
				<ele>2227.000000</ele>
			</trkpt>
			<trkpt lat="46.616591" lon="12.880216">
				<ele>2226.000000</ele>
			</trkpt>
			<trkpt lat="46.616579" lon="12.880359">
				<ele>2225.000000</ele>
			</trkpt>
			<trkpt lat="46.616190" lon="12.880692">
				<ele>2220.000000</ele>
			</trkpt>
			<trkpt lat="46.616018" lon="12.880754">
				<ele>2215.000000</ele>
			</trkpt>
			<trkpt lat="46.615357" lon="12.880539">
				<ele>2197.000000</ele>
			</trkpt>
			<trkpt lat="46.615295" lon="12.880566">
				<ele>2196.000000</ele>
			</trkpt>
			<trkpt lat="46.615240" lon="12.880772">
				<ele>2193.000000</ele>
			</trkpt>
			<trkpt lat="46.615166" lon="12.880933">
				<ele>2190.000000</ele>
			</trkpt>
			<trkpt lat="46.615122" lon="12.880979">
				<ele>2187.000000</ele>
			</trkpt>
			<trkpt lat="46.615055" lon="12.880988">
				<ele>2183.000000</ele>
			</trkpt>
			<trkpt lat="46.615043" lon="12.881033">
				<ele>2181.000000</ele>
			</trkpt>
			<trkpt lat="46.614987" lon="12.881059">
				<ele>2177.000000</ele>
			</trkpt>
			<trkpt lat="46.614882" lon="12.881033">
				<ele>2168.000000</ele>
			</trkpt>
			<trkpt lat="46.614863" lon="12.881015">
				<ele>2166.000000</ele>
			</trkpt>
			<trkpt lat="46.614833" lon="12.881015">
				<ele>2163.000000</ele>
			</trkpt>
			<trkpt lat="46.614808" lon="12.880943">
				<ele>2158.000000</ele>
			</trkpt>
			<trkpt lat="46.614752" lon="12.880906">
				<ele>2153.000000</ele>
			</trkpt>
			<trkpt lat="46.614690" lon="12.880916">
				<ele>2150.000000</ele>
			</trkpt>
			<trkpt lat="46.614623" lon="12.880916">
				<ele>2149.000000</ele>
			</trkpt>
			<trkpt lat="46.614567" lon="12.880906">
				<ele>2148.000000</ele>
			</trkpt>
			<trkpt lat="46.614426" lon="12.880772">
				<ele>2145.000000</ele>
			</trkpt>
			<trkpt lat="46.614234" lon="12.880700">
				<ele>2142.000000</ele>
			</trkpt>
			<trkpt lat="46.614117" lon="12.880709">
				<ele>2140.000000</ele>
			</trkpt>
			<trkpt lat="46.614247" lon="12.880772">
				<ele>2140.000000</ele>
			</trkpt>
			<trkpt lat="46.614290" lon="12.880772">
				<ele>2139.000000</ele>
			</trkpt>
			<trkpt lat="46.614357" lon="12.880799">
				<ele>2137.000000</ele>
			</trkpt>
			<trkpt lat="46.614401" lon="12.880853">
				<ele>2136.000000</ele>
			</trkpt>
			<trkpt lat="46.614481" lon="12.881069">
				<ele>2132.000000</ele>
			</trkpt>
			<trkpt lat="46.614357" lon="12.881113">
				<ele>2129.000000</ele>
			</trkpt>
			<trkpt lat="46.614363" lon="12.881195">
				<ele>2128.000000</ele>
			</trkpt>
			<trkpt lat="46.614413" lon="12.881239">
				<ele>2126.000000</ele>
			</trkpt>
			<trkpt lat="46.614426" lon="12.881293">
				<ele>2125.000000</ele>
			</trkpt>
			<trkpt lat="46.614413" lon="12.881320">
				<ele>2125.000000</ele>
			</trkpt>
			<trkpt lat="46.614388" lon="12.881329">
				<ele>2124.000000</ele>
			</trkpt>
			<trkpt lat="46.614376" lon="12.881348">
				<ele>2124.000000</ele>
			</trkpt>
			<trkpt lat="46.614407" lon="12.881392">
				<ele>2123.000000</ele>
			</trkpt>
			<trkpt lat="46.614456" lon="12.881401">
				<ele>2121.000000</ele>
			</trkpt>
			<trkpt lat="46.614493" lon="12.881428">
				<ele>2120.000000</ele>
			</trkpt>
			<trkpt lat="46.614475" lon="12.881554">
				<ele>2117.000000</ele>
			</trkpt>
			<trkpt lat="46.614444" lon="12.881679">
				<ele>2113.000000</ele>
			</trkpt>
			<trkpt lat="46.614426" lon="12.881975">
				<ele>2105.000000</ele>
			</trkpt>
			<trkpt lat="46.614395" lon="12.882218">
				<ele>2099.000000</ele>
			</trkpt>
			<trkpt lat="46.614401" lon="12.882327">
				<ele>2097.000000</ele>
			</trkpt>
			<trkpt lat="46.614376" lon="12.882443">
				<ele>2095.000000</ele>
			</trkpt>
			<trkpt lat="46.614370" lon="12.882641">
				<ele>2090.000000</ele>
			</trkpt>
			<trkpt lat="46.614332" lon="12.882811">
				<ele>2086.000000</ele>
			</trkpt>
			<trkpt lat="46.614216" lon="12.883063">
				<ele>2078.000000</ele>
			</trkpt>
			<trkpt lat="46.614141" lon="12.883333">
				<ele>2072.000000</ele>
			</trkpt>
			<trkpt lat="46.614135" lon="12.883656">
				<ele>2065.000000</ele>
			</trkpt>
			<trkpt lat="46.614197" lon="12.883791">
				<ele>2061.000000</ele>
			</trkpt>
			<trkpt lat="46.614172" lon="12.884114">
				<ele>2048.000000</ele>
			</trkpt>
			<trkpt lat="46.614222" lon="12.884294">
				<ele>2041.000000</ele>
			</trkpt>
			<trkpt lat="46.614209" lon="12.884365">
				<ele>2039.000000</ele>
			</trkpt>
			<trkpt lat="46.614247" lon="12.884392">
				<ele>2038.000000</ele>
			</trkpt>
			<trkpt lat="46.614234" lon="12.884419">
				<ele>2037.000000</ele>
			</trkpt>
			<trkpt lat="46.614197" lon="12.884411">
				<ele>2036.000000</ele>
			</trkpt>
			<trkpt lat="46.614129" lon="12.884384">
				<ele>2034.000000</ele>
			</trkpt>
			<trkpt lat="46.614135" lon="12.884438">
				<ele>2033.000000</ele>
			</trkpt>
			<trkpt lat="46.614166" lon="12.884482">
				<ele>2031.000000</ele>
			</trkpt>
			<trkpt lat="46.614147" lon="12.884509">
				<ele>2030.000000</ele>
			</trkpt>
			<trkpt lat="46.614117" lon="12.884482">
				<ele>2029.000000</ele>
			</trkpt>
			<trkpt lat="46.614104" lon="12.884527">
				<ele>2028.000000</ele>
			</trkpt>
			<trkpt lat="46.614068" lon="12.884509">
				<ele>2027.000000</ele>
			</trkpt>
			<trkpt lat="46.614055" lon="12.884554">
				<ele>2026.000000</ele>
			</trkpt>
			<trkpt lat="46.614068" lon="12.884599">
				<ele>2025.000000</ele>
			</trkpt>
			<trkpt lat="46.614092" lon="12.884662">
				<ele>2023.000000</ele>
			</trkpt>
			<trkpt lat="46.614062" lon="12.884725">
				<ele>2021.000000</ele>
			</trkpt>
			<trkpt lat="46.614055" lon="12.884797">
				<ele>2020.000000</ele>
			</trkpt>
			<trkpt lat="46.614092" lon="12.885012">
				<ele>2015.000000</ele>
			</trkpt>
			<trkpt lat="46.614062" lon="12.885030">
				<ele>2014.000000</ele>
			</trkpt>
			<trkpt lat="46.614080" lon="12.885101">
				<ele>2013.000000</ele>
			</trkpt>
			<trkpt lat="46.614068" lon="12.885201">
				<ele>2011.000000</ele>
			</trkpt>
			<trkpt lat="46.614110" lon="12.885300">
				<ele>2009.000000</ele>
			</trkpt>
			<trkpt lat="46.614129" lon="12.885399">
				<ele>2007.000000</ele>
			</trkpt>
			<trkpt lat="46.614332" lon="12.885820">
				<ele>1997.000000</ele>
			</trkpt>
			<trkpt lat="46.614339" lon="12.886117">
				<ele>1991.000000</ele>
			</trkpt>
			<trkpt lat="46.614530" lon="12.886782">
				<ele>1983.000000</ele>
			</trkpt>
			<trkpt lat="46.614475" lon="12.887114">
				<ele>1980.000000</ele>
			</trkpt>
			<trkpt lat="46.614450" lon="12.887222">
				<ele>1977.000000</ele>
			</trkpt>
			<trkpt lat="46.614395" lon="12.887365">
				<ele>1973.000000</ele>
			</trkpt>
			<trkpt lat="46.614357" lon="12.887662">
				<ele>1966.000000</ele>
			</trkpt>
			<trkpt lat="46.614203" lon="12.888147">
				<ele>1951.000000</ele>
			</trkpt>
			<trkpt lat="46.614296" lon="12.888596">
				<ele>1942.000000</ele>
			</trkpt>
			<trkpt lat="46.614277" lon="12.889126">
				<ele>1928.000000</ele>
			</trkpt>
			<trkpt lat="46.614401" lon="12.889432">
				<ele>1920.000000</ele>
			</trkpt>
			<trkpt lat="46.614549" lon="12.889719">
				<ele>1912.000000</ele>
			</trkpt>
			<trkpt lat="46.614611" lon="12.889845">
				<ele>1908.000000</ele>
			</trkpt>
			<trkpt lat="46.614567" lon="12.889980">
				<ele>1905.000000</ele>
			</trkpt>
			<trkpt lat="46.614777" lon="12.890214">
				<ele>1898.000000</ele>
			</trkpt>
			<trkpt lat="46.614987" lon="12.890285">
				<ele>1894.000000</ele>
			</trkpt>
			<trkpt lat="46.615085" lon="12.890564">
				<ele>1890.000000</ele>
			</trkpt>
			<trkpt lat="46.615153" lon="12.890717">
				<ele>1888.000000</ele>
			</trkpt>
			<trkpt lat="46.615222" lon="12.890806">
				<ele>1886.000000</ele>
			</trkpt>
			<trkpt lat="46.615234" lon="12.890896">
				<ele>1885.000000</ele>
			</trkpt>
			<trkpt lat="46.615122" lon="12.891166">
				<ele>1881.000000</ele>
			</trkpt>
			<trkpt lat="46.615104" lon="12.891354">
				<ele>1879.000000</ele>
			</trkpt>
			<trkpt lat="46.615147" lon="12.891552">
				<ele>1876.000000</ele>
			</trkpt>
			<trkpt lat="46.615234" lon="12.891831">
				<ele>1872.000000</ele>
			</trkpt>
			<trkpt lat="46.615215" lon="12.891965">
				<ele>1869.000000</ele>
			</trkpt>
			<trkpt lat="46.615264" lon="12.892172">
				<ele>1865.000000</ele>
			</trkpt>
			<trkpt lat="46.615264" lon="12.892414">
				<ele>1860.000000</ele>
			</trkpt>
			<trkpt lat="46.615382" lon="12.892728">
				<ele>1854.000000</ele>
			</trkpt>
			<trkpt lat="46.615419" lon="12.892900">
				<ele>1851.000000</ele>
			</trkpt>
			<trkpt lat="46.615536" lon="12.892971">
				<ele>1847.000000</ele>
			</trkpt>
			<trkpt lat="46.615542" lon="12.893250">
				<ele>1841.000000</ele>
			</trkpt>
			<trkpt lat="46.615573" lon="12.893430">
				<ele>1837.000000</ele>
			</trkpt>
			<trkpt lat="46.615659" lon="12.893556">
				<ele>1833.000000</ele>
			</trkpt>
			<trkpt lat="46.615690" lon="12.893680">
				<ele>1830.000000</ele>
			</trkpt>
			<trkpt lat="46.615659" lon="12.893833">
				<ele>1826.000000</ele>
			</trkpt>
			<trkpt lat="46.615733" lon="12.894085">
				<ele>1820.000000</ele>
			</trkpt>
			<trkpt lat="46.615746" lon="12.894202">
				<ele>1818.000000</ele>
			</trkpt>
			<trkpt lat="46.615863" lon="12.894273">
				<ele>1815.000000</ele>
			</trkpt>
			<trkpt lat="46.615900" lon="12.894399">
				<ele>1812.000000</ele>
			</trkpt>
			<trkpt lat="46.616042" lon="12.894651">
				<ele>1806.000000</ele>
			</trkpt>
			<trkpt lat="46.616122" lon="12.894768">
				<ele>1803.000000</ele>
			</trkpt>
			<trkpt lat="46.616134" lon="12.894948">
				<ele>1799.000000</ele>
			</trkpt>
			<trkpt lat="46.616172" lon="12.895191">
				<ele>1794.000000</ele>
			</trkpt>
			<trkpt lat="46.616289" lon="12.895217">
				<ele>1791.000000</ele>
			</trkpt>
			<trkpt lat="46.616369" lon="12.895298">
				<ele>1788.000000</ele>
			</trkpt>
			<trkpt lat="46.616498" lon="12.895531">
				<ele>1780.000000</ele>
			</trkpt>
			<trkpt lat="46.616721" lon="12.895613">
				<ele>1774.000000</ele>
			</trkpt>
			<trkpt lat="46.616795" lon="12.895810">
				<ele>1769.000000</ele>
			</trkpt>
			<trkpt lat="46.617116" lon="12.895837">
				<ele>1760.000000</ele>
			</trkpt>
			<trkpt lat="46.617535" lon="12.896143">
				<ele>1740.000000</ele>
			</trkpt>
			<trkpt lat="46.617671" lon="12.896178">
				<ele>1734.000000</ele>
			</trkpt>
			<trkpt lat="46.617930" lon="12.896070">
				<ele>1723.000000</ele>
			</trkpt>
			<trkpt lat="46.617961" lon="12.896367">
				<ele>1717.000000</ele>
			</trkpt>
			<trkpt lat="46.618109" lon="12.896573">
				<ele>1712.000000</ele>
			</trkpt>
			<trkpt lat="46.618405" lon="12.896520">
				<ele>1705.000000</ele>
			</trkpt>
			<trkpt lat="46.618411" lon="12.896672">
				<ele>1702.000000</ele>
			</trkpt>
			<trkpt lat="46.618541" lon="12.896663">
				<ele>1699.000000</ele>
			</trkpt>
			<trkpt lat="46.618590" lon="12.896780">
				<ele>1696.000000</ele>
			</trkpt>
			<trkpt lat="46.618596" lon="12.896862">
				<ele>1694.000000</ele>
			</trkpt>
			<trkpt lat="46.618769" lon="12.896951">
				<ele>1689.000000</ele>
			</trkpt>
			<trkpt lat="46.618818" lon="12.896862">
				<ele>1687.000000</ele>
			</trkpt>
			<trkpt lat="46.618837" lon="12.896888">
				<ele>1686.000000</ele>
			</trkpt>
			<trkpt lat="46.618893" lon="12.897112">
				<ele>1682.000000</ele>
			</trkpt>
			<trkpt lat="46.618936" lon="12.897175">
				<ele>1680.000000</ele>
			</trkpt>
			<trkpt lat="46.619053" lon="12.897328">
				<ele>1676.000000</ele>
			</trkpt>
			<trkpt lat="46.619059" lon="12.897418">
				<ele>1675.000000</ele>
			</trkpt>
			<trkpt lat="46.619158" lon="12.897508">
				<ele>1672.000000</ele>
			</trkpt>
			<trkpt lat="46.619300" lon="12.897625">
				<ele>1668.000000</ele>
			</trkpt>
			<trkpt lat="46.619404" lon="12.897661">
				<ele>1666.000000</ele>
			</trkpt>
			<trkpt lat="46.619528" lon="12.898074">
				<ele>1660.000000</ele>
			</trkpt>
			<trkpt lat="46.619633" lon="12.898388">
				<ele>1654.000000</ele>
			</trkpt>
			<trkpt lat="46.619726" lon="12.898531">
				<ele>1650.000000</ele>
			</trkpt>
			<trkpt lat="46.619664" lon="12.898703">
				<ele>1647.000000</ele>
			</trkpt>
			<trkpt lat="46.619805" lon="12.898856">
				<ele>1643.000000</ele>
			</trkpt>
			<trkpt lat="46.619929" lon="12.899259">
				<ele>1637.000000</ele>
			</trkpt>
			<trkpt lat="46.620059" lon="12.899512">
				<ele>1633.000000</ele>
			</trkpt>
			<trkpt lat="46.620207" lon="12.899646">
				<ele>1630.000000</ele>
			</trkpt>
			<trkpt lat="46.620293" lon="12.899843">
				<ele>1627.000000</ele>
			</trkpt>
			<trkpt lat="46.620478" lon="12.900086">
				<ele>1624.000000</ele>
			</trkpt>
			<trkpt lat="46.620657" lon="12.900391">
				<ele>1620.000000</ele>
			</trkpt>
			<trkpt lat="46.620707" lon="12.900615">
				<ele>1618.000000</ele>
			</trkpt>
			<trkpt lat="46.620744" lon="12.900841">
				<ele>1616.000000</ele>
			</trkpt>
			<trkpt lat="46.620861" lon="12.901020">
				<ele>1614.000000</ele>
			</trkpt>
			<trkpt lat="46.620923" lon="12.901128">
				<ele>1613.000000</ele>
			</trkpt>
			<trkpt lat="46.621021" lon="12.901271">
				<ele>1611.000000</ele>
			</trkpt>
			<trkpt lat="46.621058" lon="12.901361">
				<ele>1610.000000</ele>
			</trkpt>
			<trkpt lat="46.621126" lon="12.901506">
				<ele>1608.000000</ele>
			</trkpt>
			<trkpt lat="46.621194" lon="12.901676">
				<ele>1605.000000</ele>
			</trkpt>
			<trkpt lat="46.621206" lon="12.901900">
				<ele>1602.000000</ele>
			</trkpt>
			<trkpt lat="46.621200" lon="12.902062">
				<ele>1600.000000</ele>
			</trkpt>
			<trkpt lat="46.621033" lon="12.902133">
				<ele>1596.000000</ele>
			</trkpt>
			<trkpt lat="46.621027" lon="12.902188">
				<ele>1595.000000</ele>
			</trkpt>
			<trkpt lat="46.621033" lon="12.902223">
				<ele>1594.000000</ele>
			</trkpt>
			<trkpt lat="46.621077" lon="12.902332">
				<ele>1592.000000</ele>
			</trkpt>
			<trkpt lat="46.621089" lon="12.902376">
				<ele>1591.000000</ele>
			</trkpt>
			<trkpt lat="46.621114" lon="12.902521">
				<ele>1588.000000</ele>
			</trkpt>
			<trkpt lat="46.621181" lon="12.902592">
				<ele>1586.000000</ele>
			</trkpt>
			<trkpt lat="46.621225" lon="12.902673">
				<ele>1584.000000</ele>
			</trkpt>
			<trkpt lat="46.621281" lon="12.902844">
				<ele>1581.000000</ele>
			</trkpt>
			<trkpt lat="46.621385" lon="12.902952">
				<ele>1578.000000</ele>
			</trkpt>
			<trkpt lat="46.621515" lon="12.903095">
				<ele>1573.000000</ele>
			</trkpt>
			<trkpt lat="46.621552" lon="12.903212">
				<ele>1571.000000</ele>
			</trkpt>
			<trkpt lat="46.621497" lon="12.903248">
				<ele>1569.000000</ele>
			</trkpt>
			<trkpt lat="46.621453" lon="12.903338">
				<ele>1565.000000</ele>
			</trkpt>
			<trkpt lat="46.621385" lon="12.903320">
				<ele>1562.000000</ele>
			</trkpt>
			<trkpt lat="46.621416" lon="12.903428">
				<ele>1559.000000</ele>
			</trkpt>
			<trkpt lat="46.621459" lon="12.903554">
				<ele>1557.000000</ele>
			</trkpt>
			<trkpt lat="46.621515" lon="12.903724">
				<ele>1553.000000</ele>
			</trkpt>
			<trkpt lat="46.621570" lon="12.903859">
				<ele>1551.000000</ele>
			</trkpt>
			<trkpt lat="46.621601" lon="12.903940">
				<ele>1549.000000</ele>
			</trkpt>
			<trkpt lat="46.621644" lon="12.904011">
				<ele>1547.000000</ele>
			</trkpt>
			<trkpt lat="46.621706" lon="12.904183">
				<ele>1543.000000</ele>
			</trkpt>
			<trkpt lat="46.621761" lon="12.904317">
				<ele>1540.000000</ele>
			</trkpt>
			<trkpt lat="46.621823" lon="12.904370">
				<ele>1539.000000</ele>
			</trkpt>
			<trkpt lat="46.621848" lon="12.904407">
				<ele>1538.000000</ele>
			</trkpt>
			<trkpt lat="46.621860" lon="12.904433">
				<ele>1538.000000</ele>
			</trkpt>
			<trkpt lat="46.621873" lon="12.904460">
				<ele>1538.000000</ele>
			</trkpt>
			<trkpt lat="46.621885" lon="12.904533">
				<ele>1537.000000</ele>
			</trkpt>
			<trkpt lat="46.621904" lon="12.904686">
				<ele>1536.000000</ele>
			</trkpt>
			<trkpt lat="46.621904" lon="12.904749">
				<ele>1535.000000</ele>
			</trkpt>
			<trkpt lat="46.621910" lon="12.904793">
				<ele>1535.000000</ele>
			</trkpt>
			<trkpt lat="46.621910" lon="12.904829">
				<ele>1535.000000</ele>
			</trkpt>
			<trkpt lat="46.621922" lon="12.904865">
				<ele>1534.000000</ele>
			</trkpt>
			<trkpt lat="46.621953" lon="12.904955">
				<ele>1533.000000</ele>
			</trkpt>
			<trkpt lat="46.622027" lon="12.905152">
				<ele>1532.000000</ele>
			</trkpt>
			<trkpt lat="46.622052" lon="12.905198">
				<ele>1531.000000</ele>
			</trkpt>
			<trkpt lat="46.622064" lon="12.905242">
				<ele>1531.000000</ele>
			</trkpt>
			<trkpt lat="46.622076" lon="12.905305">
				<ele>1530.000000</ele>
			</trkpt>
			<trkpt lat="46.622089" lon="12.905458">
				<ele>1529.000000</ele>
			</trkpt>
			<trkpt lat="46.622095" lon="12.905529">
				<ele>1528.000000</ele>
			</trkpt>
			<trkpt lat="46.622107" lon="12.905611">
				<ele>1527.000000</ele>
			</trkpt>
			<trkpt lat="46.622255" lon="12.906158">
				<ele>1522.000000</ele>
			</trkpt>
			<trkpt lat="46.622299" lon="12.906248">
				<ele>1521.000000</ele>
			</trkpt>
			<trkpt lat="46.622434" lon="12.906410">
				<ele>1518.000000</ele>
			</trkpt>
			<trkpt lat="46.622422" lon="12.906455">
				<ele>1517.000000</ele>
			</trkpt>
			<trkpt lat="46.622391" lon="12.906509">
				<ele>1516.000000</ele>
			</trkpt>
			<trkpt lat="46.622378" lon="12.906707">
				<ele>1513.000000</ele>
			</trkpt>
			<trkpt lat="46.622447" lon="12.906896">
				<ele>1509.000000</ele>
			</trkpt>
			<trkpt lat="46.622502" lon="12.906949">
				<ele>1506.000000</ele>
			</trkpt>
			<trkpt lat="46.622521" lon="12.907012">
				<ele>1505.000000</ele>
			</trkpt>
			<trkpt lat="46.622521" lon="12.907102">
				<ele>1504.000000</ele>
			</trkpt>
			<trkpt lat="46.622563" lon="12.907200">
				<ele>1502.000000</ele>
			</trkpt>
			<trkpt lat="46.622582" lon="12.907255">
				<ele>1502.000000</ele>
			</trkpt>
			<trkpt lat="46.622588" lon="12.907353">
				<ele>1500.000000</ele>
			</trkpt>
			<trkpt lat="46.622638" lon="12.907479">
				<ele>1498.000000</ele>
			</trkpt>
			<trkpt lat="46.622687" lon="12.907596">
				<ele>1496.000000</ele>
			</trkpt>
			<trkpt lat="46.622755" lon="12.907659">
				<ele>1495.000000</ele>
			</trkpt>
			<trkpt lat="46.622792" lon="12.907686">
				<ele>1494.000000</ele>
			</trkpt>
			<trkpt lat="46.622810" lon="12.907703">
				<ele>1493.000000</ele>
			</trkpt>
			<trkpt lat="46.622817" lon="12.907739">
				<ele>1493.000000</ele>
			</trkpt>
			<trkpt lat="46.622823" lon="12.907766">
				<ele>1492.000000</ele>
			</trkpt>
			<trkpt lat="46.622817" lon="12.907793">
				<ele>1492.000000</ele>
			</trkpt>
			<trkpt lat="46.622804" lon="12.907812">
				<ele>1491.000000</ele>
			</trkpt>
			<trkpt lat="46.622786" lon="12.907821">
				<ele>1491.000000</ele>
			</trkpt>
			<trkpt lat="46.622773" lon="12.907839">
				<ele>1491.000000</ele>
			</trkpt>
			<trkpt lat="46.622761" lon="12.907902">
				<ele>1489.000000</ele>
			</trkpt>
			<trkpt lat="46.622742" lon="12.907946">
				<ele>1488.000000</ele>
			</trkpt>
			<trkpt lat="46.622761" lon="12.908009">
				<ele>1486.000000</ele>
			</trkpt>
			<trkpt lat="46.622786" lon="12.908045">
				<ele>1485.000000</ele>
			</trkpt>
			<trkpt lat="46.622779" lon="12.908062">
				<ele>1485.000000</ele>
			</trkpt>
			<trkpt lat="46.622779" lon="12.908089">
				<ele>1484.000000</ele>
			</trkpt>
			<trkpt lat="46.622773" lon="12.908126">
				<ele>1483.000000</ele>
			</trkpt>
			<trkpt lat="46.622792" lon="12.908162">
				<ele>1482.000000</ele>
			</trkpt>
			<trkpt lat="46.622779" lon="12.908198">
				<ele>1481.000000</ele>
			</trkpt>
			<trkpt lat="46.622761" lon="12.908269">
				<ele>1479.000000</ele>
			</trkpt>
			<trkpt lat="46.622749" lon="12.908449">
				<ele>1474.000000</ele>
			</trkpt>
			<trkpt lat="46.622736" lon="12.908557">
				<ele>1471.000000</ele>
			</trkpt>
			<trkpt lat="46.622749" lon="12.908683">
				<ele>1468.000000</ele>
			</trkpt>
			<trkpt lat="46.622736" lon="12.908781">
				<ele>1465.000000</ele>
			</trkpt>
			<trkpt lat="46.622681" lon="12.908944">
				<ele>1461.000000</ele>
			</trkpt>
			<trkpt lat="46.622669" lon="12.909041">
				<ele>1458.000000</ele>
			</trkpt>
			<trkpt lat="46.622607" lon="12.909168">
				<ele>1455.000000</ele>
			</trkpt>
			<trkpt lat="46.622576" lon="12.909257">
				<ele>1453.000000</ele>
			</trkpt>
			<trkpt lat="46.622576" lon="12.909330">
				<ele>1451.000000</ele>
			</trkpt>
			<trkpt lat="46.622545" lon="12.909546">
				<ele>1446.000000</ele>
			</trkpt>
			<trkpt lat="46.622533" lon="12.909707">
				<ele>1442.000000</ele>
			</trkpt>
			<trkpt lat="46.622496" lon="12.909959">
				<ele>1436.000000</ele>
			</trkpt>
			<trkpt lat="46.622434" lon="12.910030">
				<ele>1433.000000</ele>
			</trkpt>
			<trkpt lat="46.622434" lon="12.910552">
				<ele>1422.000000</ele>
			</trkpt>
			<trkpt lat="46.622305" lon="12.910839">
				<ele>1411.000000</ele>
			</trkpt>
			<trkpt lat="46.622305" lon="12.911135">
				<ele>1404.000000</ele>
			</trkpt>
			<trkpt lat="46.622120" lon="12.911540">
				<ele>1392.000000</ele>
			</trkpt>
			<trkpt lat="46.622199" lon="12.911881">
				<ele>1383.000000</ele>
			</trkpt>
			<trkpt lat="46.622095" lon="12.912347">
				<ele>1373.000000</ele>
			</trkpt>
			<trkpt lat="46.621805" lon="12.912886">
				<ele>1359.000000</ele>
			</trkpt>
			<trkpt lat="46.621891" lon="12.912886">
				<ele>1359.000000</ele>
			</trkpt>
			<trkpt lat="46.621922" lon="12.912896">
				<ele>1358.000000</ele>
			</trkpt>
			<trkpt lat="46.621947" lon="12.912932">
				<ele>1358.000000</ele>
			</trkpt>
			<trkpt lat="46.621996" lon="12.913013">
				<ele>1358.000000</ele>
			</trkpt>
			<trkpt lat="46.622064" lon="12.913121">
				<ele>1357.000000</ele>
			</trkpt>
			<trkpt lat="46.622070" lon="12.913139">
				<ele>1357.000000</ele>
			</trkpt>
			<trkpt lat="46.622083" lon="12.913175">
				<ele>1357.000000</ele>
			</trkpt>
			<trkpt lat="46.622089" lon="12.913202">
				<ele>1356.000000</ele>
			</trkpt>
			<trkpt lat="46.622089" lon="12.913228">
				<ele>1356.000000</ele>
			</trkpt>
			<trkpt lat="46.622089" lon="12.913282">
				<ele>1356.000000</ele>
			</trkpt>
			<trkpt lat="46.622095" lon="12.913318">
				<ele>1356.000000</ele>
			</trkpt>
			<trkpt lat="46.622101" lon="12.913372">
				<ele>1356.000000</ele>
			</trkpt>
			<trkpt lat="46.622138" lon="12.913462">
				<ele>1355.000000</ele>
			</trkpt>
			<trkpt lat="46.622162" lon="12.913534">
				<ele>1355.000000</ele>
			</trkpt>
			<trkpt lat="46.622175" lon="12.913569">
				<ele>1354.000000</ele>
			</trkpt>
			<trkpt lat="46.622175" lon="12.913615">
				<ele>1354.000000</ele>
			</trkpt>
			<trkpt lat="46.622175" lon="12.913651">
				<ele>1354.000000</ele>
			</trkpt>
			<trkpt lat="46.622175" lon="12.913687">
				<ele>1354.000000</ele>
			</trkpt>
			<trkpt lat="46.622175" lon="12.913722">
				<ele>1354.000000</ele>
			</trkpt>
			<trkpt lat="46.622162" lon="12.913758">
				<ele>1354.000000</ele>
			</trkpt>
			<trkpt lat="46.622132" lon="12.913839">
				<ele>1353.000000</ele>
			</trkpt>
			<trkpt lat="46.622095" lon="12.913902">
				<ele>1353.000000</ele>
			</trkpt>
			<trkpt lat="46.622045" lon="12.914037">
				<ele>1352.000000</ele>
			</trkpt>
			<trkpt lat="46.622008" lon="12.914163">
				<ele>1351.000000</ele>
			</trkpt>
			<trkpt lat="46.621971" lon="12.914288">
				<ele>1350.000000</ele>
			</trkpt>
			<trkpt lat="46.621947" lon="12.914414">
				<ele>1350.000000</ele>
			</trkpt>
			<trkpt lat="46.621941" lon="12.914594">
				<ele>1349.000000</ele>
			</trkpt>
			<trkpt lat="46.621947" lon="12.914674">
				<ele>1348.000000</ele>
			</trkpt>
			<trkpt lat="46.621965" lon="12.914810">
				<ele>1348.000000</ele>
			</trkpt>
			<trkpt lat="46.621971" lon="12.914881">
				<ele>1347.000000</ele>
			</trkpt>
			<trkpt lat="46.621971" lon="12.914926">
				<ele>1347.000000</ele>
			</trkpt>
			<trkpt lat="46.621971" lon="12.914989">
				<ele>1347.000000</ele>
			</trkpt>
			<trkpt lat="46.621959" lon="12.915087">
				<ele>1346.000000</ele>
			</trkpt>
			<trkpt lat="46.621947" lon="12.915177">
				<ele>1346.000000</ele>
			</trkpt>
			<trkpt lat="46.621947" lon="12.915267">
				<ele>1345.000000</ele>
			</trkpt>
			<trkpt lat="46.621947" lon="12.915303">
				<ele>1345.000000</ele>
			</trkpt>
			<trkpt lat="46.621947" lon="12.915349">
				<ele>1345.000000</ele>
			</trkpt>
			<trkpt lat="46.621959" lon="12.915376">
				<ele>1345.000000</ele>
			</trkpt>
			<trkpt lat="46.621965" lon="12.915412">
				<ele>1345.000000</ele>
			</trkpt>
			<trkpt lat="46.622002" lon="12.915447">
				<ele>1344.000000</ele>
			</trkpt>
			<trkpt lat="46.622033" lon="12.915483">
				<ele>1344.000000</ele>
			</trkpt>
			<trkpt lat="46.622052" lon="12.915510">
				<ele>1344.000000</ele>
			</trkpt>
			<trkpt lat="46.622076" lon="12.915546">
				<ele>1344.000000</ele>
			</trkpt>
			<trkpt lat="46.622089" lon="12.915591">
				<ele>1343.000000</ele>
			</trkpt>
			<trkpt lat="46.622095" lon="12.915618">
				<ele>1343.000000</ele>
			</trkpt>
			<trkpt lat="46.622095" lon="12.915653">
				<ele>1343.000000</ele>
			</trkpt>
			<trkpt lat="46.622089" lon="12.915689">
				<ele>1343.000000</ele>
			</trkpt>
			<trkpt lat="46.622083" lon="12.915735">
				<ele>1343.000000</ele>
			</trkpt>
			<trkpt lat="46.622083" lon="12.915771">
				<ele>1342.000000</ele>
			</trkpt>
			<trkpt lat="46.622076" lon="12.915825">
				<ele>1342.000000</ele>
			</trkpt>
			<trkpt lat="46.622076" lon="12.915896">
				<ele>1342.000000</ele>
			</trkpt>
			<trkpt lat="46.622076" lon="12.915951">
				<ele>1342.000000</ele>
			</trkpt>
			<trkpt lat="46.622083" lon="12.916005">
				<ele>1341.000000</ele>
			</trkpt>
			<trkpt lat="46.622089" lon="12.916058">
				<ele>1341.000000</ele>
			</trkpt>
			<trkpt lat="46.622095" lon="12.916112">
				<ele>1341.000000</ele>
			</trkpt>
			<trkpt lat="46.622101" lon="12.916157">
				<ele>1340.000000</ele>
			</trkpt>
			<trkpt lat="46.622120" lon="12.916211">
				<ele>1340.000000</ele>
			</trkpt>
			<trkpt lat="46.622144" lon="12.916247">
				<ele>1340.000000</ele>
			</trkpt>
			<trkpt lat="46.622168" lon="12.916282">
				<ele>1340.000000</ele>
			</trkpt>
			<trkpt lat="46.622199" lon="12.916318">
				<ele>1339.000000</ele>
			</trkpt>
			<trkpt lat="46.622255" lon="12.916364">
				<ele>1339.000000</ele>
			</trkpt>
			<trkpt lat="46.622280" lon="12.916391">
				<ele>1338.000000</ele>
			</trkpt>
			<trkpt lat="46.622305" lon="12.916418">
				<ele>1338.000000</ele>
			</trkpt>
			<trkpt lat="46.622311" lon="12.916444">
				<ele>1338.000000</ele>
			</trkpt>
			<trkpt lat="46.622317" lon="12.916471">
				<ele>1338.000000</ele>
			</trkpt>
			<trkpt lat="46.622311" lon="12.916507">
				<ele>1337.000000</ele>
			</trkpt>
			<trkpt lat="46.622305" lon="12.916544">
				<ele>1337.000000</ele>
			</trkpt>
			<trkpt lat="46.622280" lon="12.916570">
				<ele>1337.000000</ele>
			</trkpt>
			<trkpt lat="46.622255" lon="12.916570">
				<ele>1336.000000</ele>
			</trkpt>
			<trkpt lat="46.622230" lon="12.916570">
				<ele>1336.000000</ele>
			</trkpt>
			<trkpt lat="46.622175" lon="12.916534">
				<ele>1336.000000</ele>
			</trkpt>
			<trkpt lat="46.622089" lon="12.916462">
				<ele>1335.000000</ele>
			</trkpt>
			<trkpt lat="46.621977" lon="12.916345">
				<ele>1333.000000</ele>
			</trkpt>
			<trkpt lat="46.621959" lon="12.916309">
				<ele>1333.000000</ele>
			</trkpt>
			<trkpt lat="46.621941" lon="12.916265">
				<ele>1333.000000</ele>
			</trkpt>
			<trkpt lat="46.621922" lon="12.916228">
				<ele>1332.000000</ele>
			</trkpt>
			<trkpt lat="46.621904" lon="12.916219">
				<ele>1332.000000</ele>
			</trkpt>
			<trkpt lat="46.621879" lon="12.916211">
				<ele>1332.000000</ele>
			</trkpt>
			<trkpt lat="46.621848" lon="12.916211">
				<ele>1332.000000</ele>
			</trkpt>
			<trkpt lat="46.621829" lon="12.916238">
				<ele>1331.000000</ele>
			</trkpt>
			<trkpt lat="46.621823" lon="12.916274">
				<ele>1331.000000</ele>
			</trkpt>
			<trkpt lat="46.621823" lon="12.916318">
				<ele>1331.000000</ele>
			</trkpt>
			<trkpt lat="46.621842" lon="12.916399">
				<ele>1330.000000</ele>
			</trkpt>
			<trkpt lat="46.621848" lon="12.916427">
				<ele>1330.000000</ele>
			</trkpt>
			<trkpt lat="46.621854" lon="12.916454">
				<ele>1330.000000</ele>
			</trkpt>
			<trkpt lat="46.621879" lon="12.916534">
				<ele>1329.000000</ele>
			</trkpt>
			<trkpt lat="46.621904" lon="12.916570">
				<ele>1329.000000</ele>
			</trkpt>
			<trkpt lat="46.621928" lon="12.916615">
				<ele>1328.000000</ele>
			</trkpt>
			<trkpt lat="46.621977" lon="12.916678">
				<ele>1328.000000</ele>
			</trkpt>
			<trkpt lat="46.622064" lon="12.916758">
				<ele>1327.000000</ele>
			</trkpt>
			<trkpt lat="46.622107" lon="12.916804">
				<ele>1326.000000</ele>
			</trkpt>
			<trkpt lat="46.622138" lon="12.916848">
				<ele>1326.000000</ele>
			</trkpt>
			<trkpt lat="46.622150" lon="12.916884">
				<ele>1325.000000</ele>
			</trkpt>
			<trkpt lat="46.622150" lon="12.916930">
				<ele>1325.000000</ele>
			</trkpt>
			<trkpt lat="46.622138" lon="12.916965">
				<ele>1325.000000</ele>
			</trkpt>
			<trkpt lat="46.622120" lon="12.916993">
				<ele>1325.000000</ele>
			</trkpt>
			<trkpt lat="46.622095" lon="12.917010">
				<ele>1324.000000</ele>
			</trkpt>
			<trkpt lat="46.622045" lon="12.917010">
				<ele>1324.000000</ele>
			</trkpt>
			<trkpt lat="46.621965" lon="12.916965">
				<ele>1323.000000</ele>
			</trkpt>
			<trkpt lat="46.621731" lon="12.916758">
				<ele>1320.000000</ele>
			</trkpt>
			<trkpt lat="46.621601" lon="12.916651">
				<ele>1319.000000</ele>
			</trkpt>
			<trkpt lat="46.621570" lon="12.916597">
				<ele>1318.000000</ele>
			</trkpt>
			<trkpt lat="46.621540" lon="12.916471">
				<ele>1317.000000</ele>
			</trkpt>
			<trkpt lat="46.621527" lon="12.916408">
				<ele>1317.000000</ele>
			</trkpt>
			<trkpt lat="46.621521" lon="12.916391">
				<ele>1317.000000</ele>
			</trkpt>
			<trkpt lat="46.621509" lon="12.916364">
				<ele>1317.000000</ele>
			</trkpt>
			<trkpt lat="46.621497" lon="12.916345">
				<ele>1316.000000</ele>
			</trkpt>
			<trkpt lat="46.621478" lon="12.916337">
				<ele>1316.000000</ele>
			</trkpt>
			<trkpt lat="46.621453" lon="12.916328">
				<ele>1316.000000</ele>
			</trkpt>
			<trkpt lat="46.621435" lon="12.916337">
				<ele>1316.000000</ele>
			</trkpt>
			<trkpt lat="46.621422" lon="12.916345">
				<ele>1316.000000</ele>
			</trkpt>
			<trkpt lat="46.621404" lon="12.916364">
				<ele>1315.000000</ele>
			</trkpt>
			<trkpt lat="46.621397" lon="12.916381">
				<ele>1315.000000</ele>
			</trkpt>
			<trkpt lat="46.621397" lon="12.916418">
				<ele>1315.000000</ele>
			</trkpt>
			<trkpt lat="46.621397" lon="12.916444">
				<ele>1315.000000</ele>
			</trkpt>
			<trkpt lat="46.621397" lon="12.916471">
				<ele>1315.000000</ele>
			</trkpt>
			<trkpt lat="46.621410" lon="12.916498">
				<ele>1314.000000</ele>
			</trkpt>
			<trkpt lat="46.621422" lon="12.916534">
				<ele>1314.000000</ele>
			</trkpt>
			<trkpt lat="46.621447" lon="12.916660">
				<ele>1313.000000</ele>
			</trkpt>
			<trkpt lat="46.621472" lon="12.916750">
				<ele>1313.000000</ele>
			</trkpt>
			<trkpt lat="46.621497" lon="12.916867">
				<ele>1312.000000</ele>
			</trkpt>
			<trkpt lat="46.621527" lon="12.916984">
				<ele>1311.000000</ele>
			</trkpt>
			<trkpt lat="46.621558" lon="12.917064">
				<ele>1310.000000</ele>
			</trkpt>
			<trkpt lat="46.621657" lon="12.917280">
				<ele>1309.000000</ele>
			</trkpt>
			<trkpt lat="46.621805" lon="12.917531">
				<ele>1306.000000</ele>
			</trkpt>
			<trkpt lat="46.621860" lon="12.917621">
				<ele>1306.000000</ele>
			</trkpt>
			<trkpt lat="46.621879" lon="12.917647">
				<ele>1305.000000</ele>
			</trkpt>
			<trkpt lat="46.621898" lon="12.917693">
				<ele>1305.000000</ele>
			</trkpt>
			<trkpt lat="46.621916" lon="12.917765">
				<ele>1305.000000</ele>
			</trkpt>
			<trkpt lat="46.621922" lon="12.917819">
				<ele>1304.000000</ele>
			</trkpt>
			<trkpt lat="46.621916" lon="12.917855">
				<ele>1304.000000</ele>
			</trkpt>
			<trkpt lat="46.621904" lon="12.917890">
				<ele>1304.000000</ele>
			</trkpt>
			<trkpt lat="46.621891" lon="12.917899">
				<ele>1304.000000</ele>
			</trkpt>
			<trkpt lat="46.621873" lon="12.917909">
				<ele>1303.000000</ele>
			</trkpt>
			<trkpt lat="46.621755" lon="12.918465">
				<ele>1299.000000</ele>
			</trkpt>
			<trkpt lat="46.621749" lon="12.918978">
				<ele>1291.000000</ele>
			</trkpt>
			<trkpt lat="46.621823" lon="12.919328">
				<ele>1286.000000</ele>
			</trkpt>
			<trkpt lat="46.621792" lon="12.919760">
				<ele>1280.000000</ele>
			</trkpt>
			<trkpt lat="46.621848" lon="12.920209">
				<ele>1277.000000</ele>
			</trkpt>
			<trkpt lat="46.621867" lon="12.920370">
				<ele>1275.000000</ele>
			</trkpt>
			<trkpt lat="46.621916" lon="12.920595">
				<ele>1274.000000</ele>
			</trkpt>
			<trkpt lat="46.621965" lon="12.920747">
				<ele>1273.000000</ele>
			</trkpt>
			<trkpt lat="46.621983" lon="12.920855">
				<ele>1272.000000</ele>
			</trkpt>
			<trkpt lat="46.622002" lon="12.920936">
				<ele>1271.000000</ele>
			</trkpt>
			<trkpt lat="46.622014" lon="12.921016">
				<ele>1271.000000</ele>
			</trkpt>
			<trkpt lat="46.622027" lon="12.921161">
				<ele>1270.000000</ele>
			</trkpt>
			<trkpt lat="46.622027" lon="12.921223">
				<ele>1269.000000</ele>
			</trkpt>
			<trkpt lat="46.622027" lon="12.921268">
				<ele>1269.000000</ele>
			</trkpt>
			<trkpt lat="46.622021" lon="12.921313">
				<ele>1268.000000</ele>
			</trkpt>
			<trkpt lat="46.621996" lon="12.921421">
				<ele>1268.000000</ele>
			</trkpt>
			<trkpt lat="46.621977" lon="12.921502">
				<ele>1267.000000</ele>
			</trkpt>
			<trkpt lat="46.621953" lon="12.921555">
				<ele>1266.000000</ele>
			</trkpt>
			<trkpt lat="46.621947" lon="12.921609">
				<ele>1266.000000</ele>
			</trkpt>
			<trkpt lat="46.621941" lon="12.921672">
				<ele>1265.000000</ele>
			</trkpt>
			<trkpt lat="46.621941" lon="12.921744">
				<ele>1265.000000</ele>
			</trkpt>
			<trkpt lat="46.621934" lon="12.921781">
				<ele>1265.000000</ele>
			</trkpt>
			<trkpt lat="46.621922" lon="12.921817">
				<ele>1264.000000</ele>
			</trkpt>
			<trkpt lat="46.621910" lon="12.921834">
				<ele>1264.000000</ele>
			</trkpt>
			<trkpt lat="46.621891" lon="12.921844">
				<ele>1264.000000</ele>
			</trkpt>
			<trkpt lat="46.621873" lon="12.921844">
				<ele>1264.000000</ele>
			</trkpt>
			<trkpt lat="46.621854" lon="12.921844">
				<ele>1264.000000</ele>
			</trkpt>
			<trkpt lat="46.621836" lon="12.921834">
				<ele>1263.000000</ele>
			</trkpt>
			<trkpt lat="46.621817" lon="12.921798">
				<ele>1263.000000</ele>
			</trkpt>
			<trkpt lat="46.621805" lon="12.921754">
				<ele>1263.000000</ele>
			</trkpt>
			<trkpt lat="46.621805" lon="12.921727">
				<ele>1262.000000</ele>
			</trkpt>
			<trkpt lat="46.621798" lon="12.921681">
				<ele>1262.000000</ele>
			</trkpt>
			<trkpt lat="46.621805" lon="12.921618">
				<ele>1262.000000</ele>
			</trkpt>
			<trkpt lat="46.621798" lon="12.921555">
				<ele>1261.000000</ele>
			</trkpt>
			<trkpt lat="46.621774" lon="12.921368">
				<ele>1260.000000</ele>
			</trkpt>
			<trkpt lat="46.621749" lon="12.921242">
				<ele>1259.000000</ele>
			</trkpt>
			<trkpt lat="46.621713" lon="12.921106">
				<ele>1258.000000</ele>
			</trkpt>
			<trkpt lat="46.621663" lon="12.921035">
				<ele>1257.000000</ele>
			</trkpt>
			<trkpt lat="46.621601" lon="12.920999">
				<ele>1256.000000</ele>
			</trkpt>
			<trkpt lat="46.621527" lon="12.920953">
				<ele>1255.000000</ele>
			</trkpt>
			<trkpt lat="46.621509" lon="12.920945">
				<ele>1255.000000</ele>
			</trkpt>
			<trkpt lat="46.621484" lon="12.920945">
				<ele>1255.000000</ele>
			</trkpt>
			<trkpt lat="46.621466" lon="12.920953">
				<ele>1255.000000</ele>
			</trkpt>
			<trkpt lat="46.621453" lon="12.920963">
				<ele>1254.000000</ele>
			</trkpt>
			<trkpt lat="46.621441" lon="12.920981">
				<ele>1254.000000</ele>
			</trkpt>
			<trkpt lat="46.621435" lon="12.921008">
				<ele>1254.000000</ele>
			</trkpt>
			<trkpt lat="46.621428" lon="12.921062">
				<ele>1254.000000</ele>
			</trkpt>
			<trkpt lat="46.621435" lon="12.921152">
				<ele>1253.000000</ele>
			</trkpt>
			<trkpt lat="46.621447" lon="12.921251">
				<ele>1252.000000</ele>
			</trkpt>
			<trkpt lat="46.621447" lon="12.921358">
				<ele>1251.000000</ele>
			</trkpt>
			<trkpt lat="46.621441" lon="12.921421">
				<ele>1251.000000</ele>
			</trkpt>
			<trkpt lat="46.621428" lon="12.921492">
				<ele>1250.000000</ele>
			</trkpt>
			<trkpt lat="46.621360" lon="12.921672">
				<ele>1249.000000</ele>
			</trkpt>
			<trkpt lat="46.621336" lon="12.921915">
				<ele>1247.000000</ele>
			</trkpt>
			<trkpt lat="46.621268" lon="12.922230">
				<ele>1245.000000</ele>
			</trkpt>
			<trkpt lat="46.621231" lon="12.922418">
				<ele>1244.000000</ele>
			</trkpt>
			<trkpt lat="46.621212" lon="12.922553">
				<ele>1243.000000</ele>
			</trkpt>
			<trkpt lat="46.621212" lon="12.922643">
				<ele>1242.000000</ele>
			</trkpt>
			<trkpt lat="46.621219" lon="12.922687">
				<ele>1242.000000</ele>
			</trkpt>
			<trkpt lat="46.621225" lon="12.922733">
				<ele>1242.000000</ele>
			</trkpt>
			<trkpt lat="46.621250" lon="12.922823">
				<ele>1241.000000</ele>
			</trkpt>
			<trkpt lat="46.621262" lon="12.922859">
				<ele>1241.000000</ele>
			</trkpt>
			<trkpt lat="46.621268" lon="12.922903">
				<ele>1240.000000</ele>
			</trkpt>
			<trkpt lat="46.621281" lon="12.922993">
				<ele>1240.000000</ele>
			</trkpt>
			<trkpt lat="46.621287" lon="12.923047">
				<ele>1240.000000</ele>
			</trkpt>
			<trkpt lat="46.621281" lon="12.923110">
				<ele>1239.000000</ele>
			</trkpt>
			<trkpt lat="46.621281" lon="12.923236">
				<ele>1239.000000</ele>
			</trkpt>
			<trkpt lat="46.621281" lon="12.923389">
				<ele>1238.000000</ele>
			</trkpt>
			<trkpt lat="46.621287" lon="12.923649">
				<ele>1236.000000</ele>
			</trkpt>
			<trkpt lat="46.621318" lon="12.923873">
				<ele>1235.000000</ele>
			</trkpt>
			<trkpt lat="46.621336" lon="12.923972">
				<ele>1234.000000</ele>
			</trkpt>
			<trkpt lat="46.621354" lon="12.924089">
				<ele>1234.000000</ele>
			</trkpt>
			<trkpt lat="46.621459" lon="12.924439">
				<ele>1232.000000</ele>
			</trkpt>
			<trkpt lat="46.621576" lon="12.924754">
				<ele>1230.000000</ele>
			</trkpt>
			<trkpt lat="46.621607" lon="12.924853">
				<ele>1229.000000</ele>
			</trkpt>
			<trkpt lat="46.621632" lon="12.924970">
				<ele>1229.000000</ele>
			</trkpt>
			<trkpt lat="46.621682" lon="12.925203">
				<ele>1228.000000</ele>
			</trkpt>
			<trkpt lat="46.621805" lon="12.925634">
				<ele>1225.000000</ele>
			</trkpt>
			<trkpt lat="46.621922" lon="12.926039">
				<ele>1223.000000</ele>
			</trkpt>
			<trkpt lat="46.622014" lon="12.926316">
				<ele>1221.000000</ele>
			</trkpt>
			<trkpt lat="46.622212" lon="12.926757">
				<ele>1219.000000</ele>
			</trkpt>
			<trkpt lat="46.622224" lon="12.926901">
				<ele>1218.000000</ele>
			</trkpt>
			<trkpt lat="46.622249" lon="12.927027">
				<ele>1217.000000</ele>
			</trkpt>
			<trkpt lat="46.622317" lon="12.927323">
				<ele>1215.000000</ele>
			</trkpt>
			<trkpt lat="46.622434" lon="12.927736">
				<ele>1212.000000</ele>
			</trkpt>
			<trkpt lat="46.622557" lon="12.928221">
				<ele>1210.000000</ele>
			</trkpt>
			<trkpt lat="46.622570" lon="12.928347">
				<ele>1209.000000</ele>
			</trkpt>
			<trkpt lat="46.622570" lon="12.928463">
				<ele>1208.000000</ele>
			</trkpt>
			<trkpt lat="46.622527" lon="12.928769">
				<ele>1207.000000</ele>
			</trkpt>
			<trkpt lat="46.622521" lon="12.928886">
				<ele>1206.000000</ele>
			</trkpt>
			<trkpt lat="46.622533" lon="12.929002">
				<ele>1205.000000</ele>
			</trkpt>
			<trkpt lat="46.622576" lon="12.929192">
				<ele>1204.000000</ele>
			</trkpt>
			<trkpt lat="46.622570" lon="12.929291">
				<ele>1204.000000</ele>
			</trkpt>
			<trkpt lat="46.622545" lon="12.929353">
				<ele>1203.000000</ele>
			</trkpt>
			<trkpt lat="46.622515" lon="12.929416">
				<ele>1203.000000</ele>
			</trkpt>
			<trkpt lat="46.622496" lon="12.929479">
				<ele>1202.000000</ele>
			</trkpt>
			<trkpt lat="46.622496" lon="12.929551">
				<ele>1202.000000</ele>
			</trkpt>
			<trkpt lat="46.622490" lon="12.929578">
				<ele>1202.000000</ele>
			</trkpt>
			<trkpt lat="46.622478" lon="12.929695">
				<ele>1201.000000</ele>
			</trkpt>
			<trkpt lat="46.622478" lon="12.929748">
				<ele>1201.000000</ele>
			</trkpt>
			<trkpt lat="46.622471" lon="12.929794">
				<ele>1201.000000</ele>
			</trkpt>
			<trkpt lat="46.622471" lon="12.929794">
				<ele>1200.000000</ele>
			</trkpt>
		</trkseg>
	</trk>
</gpx>

